{"type":"FeatureCollection","features":[{"type":"Feature","geometry":{"type":"Point","coordinates":[-73.1497,6.699700000000001]},"id":"0007000000000000c337","properties":{"alert":"","cdi":3.299999952316284,"code":"6000pz0i","detail":"https://earthquake.usgs.gov/fdsnws/event/1/query?eventid=us6000pz0i&format=geojson","dmin":0.8050000071525574,"felt":2.0,"gap":113.0,"ids":",us6000pz0i,","mag":4.5,"magType":"mb","mmi":null,"net":"us","nst":57.0,"place":"4 km NE of Villanueva, Colombia","rms":0.8700000047683716,"sig":312,"sources":",us,","status":"reviewed","system:time_end":1742030352076,"system:time_start":1742030352076,"time":1742030352076,"title":"M 4.5 - 4 km NE of Villanueva, Colombia","tsunami":0,"type":"earthquake","types":",dyfi,origin,phase-data,","tz":null,"updated":1747509598040,"url":"https://earthquake.usgs.gov/earthquakes/eventpage/us6000pz0i"}},{"type":"Feature","geometry":{"type":"Point","coordinates":[-73.0999,6.698400000000001]},"id":"00070000000000003745","properties":{"alert":"","cdi":1.0,"code":"7000p9zc","detail":"https://earthquake.usgs.gov/fdsnws/event/1/query?eventid=us7000p9zc&format=geojson","dmin":0.8009999990463257,"felt":1.0,"gap":45.0,"ids":",us7000p9zc,","mag":4.599999904632568,"magType":"mb","mmi":null,"net":"us","nst":150.0,"place":"3 km S of Jordán, Colombia","rms":0.6800000071525574,"sig":326,"sources":",us,","status":"reviewed","system:time_end":1738213423838,"system:time_start":1738213423838,"time":1738213423838,"title":"M 4.6 - 3 km S of Jordán, Colombia","tsunami":0,"type":"earthquake","types":",dyfi,origin,phase-data,","tz":null,"updated":1744750524040,"url":"https://earthquake.usgs.gov/earthquakes/eventpage/us7000p9zc"}},{"type":"Feature","geometry":{"type":"Point","coordinates":[-73.8432,7.3646]},"id":"0007000000000000c14b","properties":{"alert":"","cdi":2.9000000953674316,"code":"7000pymq","detail":"https://earthquake.usgs.gov/fdsnws/event/1/query?eventid=us7000pymq&format=geojson","dmin":1.6460000276565552,"felt":2.0,"gap":72.0,"ids":",us7000pymq,","mag":4.599999904632568,"magType":"mb","mmi":null,"net":"us","nst":102.0,"place":"6 km ENE of Puerto Wilches, Colombia","rms":1.2200000286102295,"sig":326,"sources":",us,","status":"reviewed","system:time_end":1746960111453,"system:time_start":1746960111453,"time":1746960111453,"title":"M 4.6 - 6 km ENE of Puerto Wilches, Colombia","tsunami":0,"type":"earthquake","types":",dyfi,origin,phase-data,","tz":null,"updated":1746962195806,"url":"https://earthquake.usgs.gov/earthquakes/eventpage/us7000pymq"}},{"type":"Feature","geometry":{"type":"Point","coordinates":[-73.0927,6.809800000000001]},"id":"0007000000000000c224","properties":{"alert":"","cdi":3.0,"code":"6000q6zq","detail":"https://earthquake.usgs.gov/fdsnws/event/1/query?eventid=us6000q6zq&format=geojson","dmin":2.302999973297119,"felt":7.0,"gap":82.0,"ids":",us6000q6zq,","mag":4.699999809265137,"magType":"mww","mmi":null,"net":"us","nst":80.0,"place":"8 km N of Jordán, Colombia","rms":0.8999999761581421,"sig":342,"sources":",us,","status":"reviewed","system:time_end":1744966121271,"system:time_start":1744966121271,"time":1744966121271,"title":"M 4.7 - 8 km N of Jordán, Colombia","tsunami":0,"type":"earthquake","types":",dyfi,origin,phase-data,","tz":null,"updated":1747202853664,"url":"https://earthquake.usgs.gov/earthquakes/eventpage/us6000q6zq"}},{"type":"Feature","geometry":{"type":"Point","coordinates":[-73.0887,6.709399999999999]},"id":"0007000000000000c223","properties":{"alert":"","cdi":3.4000000953674316,"code":"6000q6zz","detail":"https://earthquake.usgs.gov/fdsnws/event/1/query?eventid=us6000q6zz&format=geojson","dmin":2.2209999561309814,"felt":9.0,"gap":46.0,"ids":",us6000q6zz,","mag":5.199999809265137,"magType":"mb","mmi":null,"net":"us","nst":178.0,"place":"2 km SSE of Jordán, Colombia","rms":0.5600000023841858,"sig":419,"sources":",us,","status":"reviewed","system:time_end":1744972304347,"system:time_start":1744972304347,"time":1744972304347,"title":"M 5.2 - 2 km SSE of Jordán, Colombia","tsunami":0,"type":"earthquake","types":",dyfi,origin,phase-data,","tz":null,"updated":1747320535316,"url":"https://earthquake.usgs.gov/earthquakes/eventpage/us6000q6zz"}},{"type":"Feature","geometry":{"type":"Point","coordinates":[-73.1237,6.8592]},"id":"0007000000000000c11c","properties":{"alert":"","cdi":null,"code":"6000qgwk","detail":"https://earthquake.usgs.gov/fdsnws/event/1/query?eventid=us6000qgwk&format=geojson","dmin":0.9610000252723694,"felt":null,"gap":117.0,"ids":",us6000qgwk,","mag":4.0,"magType":"mb","mmi":null,"net":"us","nst":55.0,"place":"14 km NNW of Jordán, Colombia","rms":0.5799999833106995,"sig":246,"sources":",us,","status":"reviewed","system:time_end":1747474862410,"system:time_start":1747474862410,"time":1747474862410,"title":"M 4.0 - 14 km NNW of Jordán, Colombia","tsunami":0,"type":"earthquake","types":",origin,phase-data,","tz":null,"updated":1748674147040,"url":"https://earthquake.usgs.gov/earthquakes/eventpage/us6000qgwk"}},{"type":"Feature","geometry":{"type":"Point","coordinates":[-73.0647,6.7993]},"id":"00070000000000003800","properties":{"alert":"","cdi":null,"code":"6000pjzy","detail":"https://earthquake.usgs.gov/fdsnws/event/1/query?eventid=us6000pjzy&format=geojson","dmin":0.9010000228881836,"felt":null,"gap":97.0,"ids":",us6000pjzy,","mag":4.199999809265137,"magType":"mb","mmi":null,"net":"us","nst":13.0,"place":"8 km NNE of Jordán, Colombia","rms":0.5899999737739563,"sig":271,"sources":",us,","status":"reviewed","system:time_end":1735832790445,"system:time_start":1735832790445,"time":1735832790445,"title":"M 4.2 - 8 km NNE of Jordán, Colombia","tsunami":0,"type":"earthquake","types":",origin,phase-data,","tz":null,"updated":1742247257040,"url":"https://earthquake.usgs.gov/earthquakes/eventpage/us6000pjzy"}},{"type":"Feature","geometry":{"type":"Point","coordinates":[-73.0956,7.115900000000001]},"id":"0007000000000000c26f","properties":{"alert":"","cdi":null,"code":"6000q6rh","detail":"https://earthquake.usgs.gov/fdsnws/event/1/query?eventid=us6000q6rh&format=geojson","dmin":3.005000114440918,"felt":null,"gap":233.0,"ids":",us6000q6rh,","mag":4.199999809265137,"magType":"mb","mmi":null,"net":"us","nst":33.0,"place":"2 km ESE of Bucaramanga, Colombia","rms":0.8500000238418579,"sig":271,"sources":",us,","status":"reviewed","system:time_end":1743921490371,"system:time_start":1743921490371,"time":1743921490371,"title":"M 4.2 - 2 km ESE of Bucaramanga, Colombia","tsunami":0,"type":"earthquake","types":",origin,phase-data,","tz":null,"updated":1745396122040,"url":"https://earthquake.usgs.gov/earthquakes/eventpage/us6000q6rh"}},{"type":"Feature","geometry":{"type":"Point","coordinates":[-73.1015,6.8782]},"id":"0007000000000000c385","properties":{"alert":"","cdi":null,"code":"6000px4q","detail":"https://earthquake.usgs.gov/fdsnws/event/1/query?eventid=us6000px4q&format=geojson","dmin":0.9789999723434448,"felt":null,"gap":96.0,"ids":",us6000px4q,","mag":4.199999809265137,"magType":"mb","mmi":null,"net":"us","nst":11.0,"place":"13 km SSW of Piedecuesta, Colombia","rms":0.8100000023841858,"sig":271,"sources":",us,","status":"reviewed","system:time_end":1741221109019,"system:time_start":1741221109019,"time":1741221109019,"title":"M 4.2 - 13 km SSW of Piedecuesta, Colombia","tsunami":0,"type":"earthquake","types":",origin,phase-data,","tz":null,"updated":1747416601040,"url":"https://earthquake.usgs.gov/earthquakes/eventpage/us6000px4q"}},{"type":"Feature","geometry":{"type":"Point","coordinates":[-72.8631,7.1274]},"id":"000700000000000037d8","properties":{"alert":"","cdi":null,"code":"6000pisv","detail":"https://earthquake.usgs.gov/fdsnws/event/1/query?eventid=us6000pisv&format=geojson","dmin":1.246000051498413,"felt":null,"gap":35.0,"ids":",us6000pisv,","mag":4.300000190734863,"magType":"mb","mmi":null,"net":"us","nst":64.0,"place":"13 km SE of Tona, Colombia","rms":0.7599999904632568,"sig":284,"sources":",us,","status":"reviewed","system:time_end":1736393621557,"system:time_start":1736393621557,"time":1736393621557,"title":"M 4.3 - 13 km SE of Tona, Colombia","tsunami":0,"type":"earthquake","types":",origin,phase-data,","tz":null,"updated":1742504092040,"url":"https://earthquake.usgs.gov/earthquakes/eventpage/us6000pisv"}},{"type":"Feature","geometry":{"type":"Point","coordinates":[-72.9498,6.6999]},"id":"0007000000000000c2bd","properties":{"alert":"","cdi":null,"code":"7000pmup","detail":"https://earthquake.usgs.gov/fdsnws/event/1/query?eventid=us7000pmup&format=geojson","dmin":0.8130000233650208,"felt":null,"gap":39.0,"ids":",us7000pmup,","mag":4.300000190734863,"magType":"mb","mmi":null,"net":"us","nst":74.0,"place":"6 km SSE of Cepitá, Colombia","rms":0.75,"sig":284,"sources":",us,","status":"reviewed","system:time_end":1743009321119,"system:time_start":1743009321119,"time":1743009321119,"title":"M 4.3 - 6 km SSE of Cepitá, Colombia","tsunami":0,"type":"earthquake","types":",origin,phase-data,","tz":null,"updated":1749244344040,"url":"https://earthquake.usgs.gov/earthquakes/eventpage/us7000pmup"}},{"type":"Feature","geometry":{"type":"Point","coordinates":[-73.0438,6.7029]},"id":"0007000000000000c2cc","properties":{"alert":"","cdi":null,"code":"6000q3pn","detail":"https://earthquake.usgs.gov/fdsnws/event/1/query?eventid=us6000q3pn&format=geojson","dmin":0.8059999942779541,"felt":null,"gap":39.0,"ids":",us6000q3pn,","mag":4.400000095367432,"magType":"mb","mmi":null,"net":"us","nst":42.0,"place":"2 km WNW of Aratoca, Colombia","rms":0.7300000190734863,"sig":298,"sources":",us,","status":"reviewed","system:time_end":1742852625839,"system:time_start":1742852625839,"time":1742852625839,"title":"M 4.4 - 2 km WNW of Aratoca, Colombia","tsunami":0,"type":"earthquake","types":",origin,phase-data,","tz":null,"updated":1748540185040,"url":"https://earthquake.usgs.gov/earthquakes/eventpage/us6000q3pn"}},{"type":"Feature","geometry":{"type":"Point","coordinates":[-73.0557,6.728200000000001]},"id":"000700000000000036fe","properties":{"alert":"","cdi":null,"code":"7000pbxz","detail":"https://earthquake.usgs.gov/fdsnws/event/1/query?eventid=us7000pbxz&format=geojson","dmin":0.8309999704360962,"felt":null,"gap":61.0,"ids":",us7000pbxz,","mag":4.5,"magType":"mb","mmi":null,"net":"us","nst":43.0,"place":"4 km E of Jordán, Colombia","rms":0.5099999904632568,"sig":312,"sources":",us,","status":"reviewed","system:time_end":1738875802973,"system:time_start":1738875802973,"time":1738875802973,"title":"M 4.5 - 4 km E of Jordán, Colombia","tsunami":0,"type":"earthquake","types":",origin,phase-data,","tz":null,"updated":1745678823040,"url":"https://earthquake.usgs.gov/earthquakes/eventpage/us7000pbxz"}},{"type":"Feature","geometry":{"type":"Point","coordinates":[-73.1248,6.686800000000001]},"id":"0007000000000000375c","properties":{"alert":"","cdi":null,"code":"6000pmg0","detail":"https://earthquake.usgs.gov/fdsnws/event/1/query?eventid=us6000pmg0&format=geojson","dmin":0.7900000214576721,"felt":null,"gap":81.0,"ids":",us6000pmg0,","mag":4.5,"magType":"mb","mmi":null,"net":"us","nst":43.0,"place":"5 km ENE of Villanueva, Colombia","rms":0.44999998807907104,"sig":312,"sources":",us,","status":"reviewed","system:time_end":1737905550833,"system:time_start":1737905550833,"time":1737905550833,"title":"M 4.5 - 5 km ENE of Villanueva, Colombia","tsunami":0,"type":"earthquake","types":",origin,phase-data,","tz":null,"updated":1744149660040,"url":"https://earthquake.usgs.gov/earthquakes/eventpage/us6000pmg0"}},{"type":"Feature","geometry":{"type":"Point","coordinates":[-73.16060000000002,6.725099999999999]},"id":"000700000000000036bb","properties":{"alert":"","cdi":null,"code":"7000pe90","detail":"https://earthquake.usgs.gov/fdsnws/event/1/query?eventid=us7000pe90&format=geojson","dmin":0.8309999704360962,"felt":null,"gap":82.0,"ids":",us7000pe90,","mag":4.599999904632568,"magType":"mb","mmi":null,"net":"us","nst":79.0,"place":"6 km NNE of Villanueva, Colombia","rms":0.6600000262260437,"sig":326,"sources":",us,","status":"reviewed","system:time_end":1739807300623,"system:time_start":1739807300623,"time":1739807300623,"title":"M 4.6 - 6 km NNE of Villanueva, Colombia","tsunami":0,"type":"earthquake","types":",origin,phase-data,","tz":null,"updated":1746203180040,"url":"https://earthquake.usgs.gov/earthquakes/eventpage/us7000pe90"}}]}