{"type":"FeatureCollection","features":[{"type":"Feature","geometry":{"type":"Polygon","coordinates":[[[-74.52657006417748,6.273643066232606],[-74.52636049182932,6.270401292465181],[-74.52524574867282,6.26056892836843],[-74.52073761821009,6.246839420914523],[-74.51258636957807,6.2258504117604545],[-74.512938664744,6.224691016062501],[-74.51290298818465,6.223883928834575],[-74.5086356078551,6.217324585256105],[-74.50779732027719,6.216254436449174],[-74.50616973435312,6.214189848427187],[-74.50586651633736,6.2139535033791855],[-74.5054652054573,6.213654723720949],[-74.5028298362802,6.213351555767423],[-74.49059852883985,6.205757706684203],[-74.47801498770303,6.2024133524597085],[-74.4700956295093,6.1966789466736785],[-74.4735246018038,6.184621541351324],[-74.47310103701172,6.182173502383486],[-74.47308314996259,6.178918330953954],[-74.47331505541354,6.1757925086684],[-74.47527260070007,6.1683057294026495],[-74.47827353757177,6.1639045804520585],[-74.4749961595647,6.1553475752410165],[-74.46741116444949,6.150099208378943],[-74.45519331337117,6.139129789833588],[-74.45262481133521,6.135673974441149],[-74.4526070116539,6.134599380357135],[-74.45286112653218,6.133845739696715],[-74.45307516950919,6.133426597980986],[-74.45374851321249,6.132655218909735],[-74.4549881279612,6.130755642449098],[-74.45614303070136,6.128673172395949],[-74.45637495844608,6.127295384553814],[-74.4542435014863,6.120432794051258],[-74.45145208578349,6.112495613126052],[-74.45216550742664,6.100995586050239],[-74.4522324129194,6.100710179742822],[-74.45169287485483,6.099287751420112],[-74.45105521244095,6.098699131440261],[-74.44906197705834,6.097356943531047],[-74.44396080571747,6.093968043067581],[-74.42822459628145,6.086864667163588],[-74.42436748477435,6.0863296051704445],[-74.41767888868372,6.086936049456484],[-74.41452626423454,6.087930368136122],[-74.4115921502814,6.088117705700676],[-74.40843959684537,6.0866416954304885],[-74.40337402964268,6.081794707097268],[-74.4016439306981,6.079681094060997],[-74.40092153761603,6.078521668440559],[-74.40004757585807,6.075703552781552],[-74.40009660658615,6.072965633475499],[-74.40116677939078,6.07041504321853],[-74.40170190811845,6.067440822290081],[-74.40049350446505,6.065411936428452],[-74.39802755181958,6.061452261376209],[-74.39708673908274,6.060025389266349],[-74.39499098593323,6.05915578889755],[-74.38745956411903,6.0535195504081285],[-74.38222455029887,6.048971250983722],[-74.38265710130877,6.045212248406974],[-74.37604872807111,6.041841111478843],[-74.36895875705196,6.0466659195180705],[-74.36853959612311,6.046848671598589],[-74.36696549669065,6.0468665282999465],[-74.36614506235328,6.046697060955699],[-74.3656411484333,6.04648303508672],[-74.36523978817102,6.0460772966183125],[-74.36500353555643,6.04540839121421],[-74.36488308239902,6.044735074833091],[-74.36495002071642,6.043861137971589],[-74.36481623354645,6.042233519817014],[-74.36399569988396,6.04057474006922],[-74.36358995090967,6.040222444136207],[-74.36275160296657,6.0398524029020395],[-74.35824353630339,6.038795566983061],[-74.34876794042704,6.038599406542923],[-74.3472607020416,6.039526838110756],[-74.3461236196562,6.041270352594385],[-74.3449375737638,6.043219030827667],[-74.34440245436242,6.045591256917103],[-74.34132121323366,6.054884007955577],[-74.33779401481549,6.0625358309634345],[-74.33616200545438,6.065046301006423],[-74.32704319231297,6.066437501358168],[-74.31765233558012,6.068881094793496],[-74.30638862566829,6.075061417380117],[-74.30334746768787,6.0781515634511845],[-74.3028792759351,6.079854977620772],[-74.30236650162998,6.080884986365477],[-74.2982953193993,6.083796799203725],[-74.29480828370434,6.082677590111691],[-74.28749541640211,6.080193888839851],[-74.27656164592545,6.080381166200299],[-74.27747578060486,6.074874134919248],[-74.26953859284295,6.070174293054197],[-74.26629678942692,6.069014917983127],[-74.26144534801395,6.0675166220201575],[-74.26036619771456,6.056145950532849],[-74.26179760163498,6.0478653766194],[-74.26402715251267,6.03338223736598],[-74.26418322005439,6.0322852680020835],[-74.26416092469945,6.031259667160713],[-74.26386660785117,6.030363424996708],[-74.262145377548,6.026403764699833],[-74.25856479405496,6.009976408056698],[-74.25507323673318,6.004001201915823],[-74.24905792752642,5.99746858650793],[-74.23848095936935,5.98686039880211],[-74.23327271133999,5.981986626539771],[-74.23043228310608,5.9789187751942015],[-74.22837660132987,5.976635677083394],[-74.2248182848603,5.971913492054812],[-74.22249511446908,5.9688055532373925],[-74.22265112783342,5.967329541901266],[-74.22577700949603,5.9616219087759825],[-74.22781033102237,5.958241896631776],[-74.22827853629798,5.9575908933507264],[-74.22950922626464,5.9564270681611475],[-74.23022272175815,5.956181820540852],[-74.23114129722659,5.9554415736218],[-74.2317209905822,5.954928800756476],[-74.2338167553054,5.951816382832197],[-74.23847648176167,5.944735260918517],[-74.23879752595543,5.944213607553505],[-74.23889567491894,5.943696314245519],[-74.23889567491894,5.942719804431264],[-74.23877970510696,5.941712032436365],[-74.23763818212493,5.935754646979635],[-74.23726806100395,5.935166074567849],[-74.23519015689644,5.932383604801388],[-74.23468623720136,5.932165082163149],[-74.23409768733562,5.932298897596549],[-74.23143109935538,5.9318618772240495],[-74.22888501618556,5.931259926650378],[-74.22710578192918,5.930368103073908],[-74.22599992009366,5.928339209492046],[-74.22490748542039,5.9225468306284945],[-74.22554514278197,5.91964392540171],[-74.23122601693207,5.906431619713903],[-74.23284911714417,5.904554326244609],[-74.23900268946798,5.898962635375039],[-74.24114753442478,5.897718532627457],[-74.25431972210183,5.889437947018381],[-74.26552989025791,5.8783392635766205],[-74.26862898475692,5.876007141244722],[-74.27297212325388,5.872074207509479],[-74.2736766748372,5.8712537419322945],[-74.2738906631509,5.870883664625122],[-74.27497868687347,5.8684846724383375],[-74.27509911042957,5.867980794891902],[-74.27306577710971,5.863445874506096],[-74.2693334635881,5.851540041969159],[-74.2687359819077,5.847749827973286],[-74.26608279220133,5.8345910652855295],[-74.26340735800915,5.833890943434296],[-74.2524111626541,5.833449516815089],[-74.24469246008468,5.8335387000288526],[-74.23590363030887,5.835424859962406],[-74.23113681943978,5.836709122260427],[-74.22781928675803,5.838795996253856],[-74.22641018593886,5.842688749844282],[-74.2245150384558,5.844994134424816],[-74.21510635989976,5.853073999948052],[-74.21367494976529,5.853814205404334],[-74.20799407108618,5.854594591915697],[-74.20550140457739,5.854260146298321],[-74.2051492220297,5.853493164365859],[-74.20487272422267,5.852900128705117],[-74.20429303586513,5.852186643677742],[-74.20396754256184,5.851856666022698],[-74.20358848634571,5.851553482059661],[-74.2032496459735,5.851330522927007],[-74.20286163133349,5.851214561927171],[-74.20230871801888,5.851152159336353],[-74.20139017782071,5.85124129216827],[-74.20013269738716,5.851482100117513],[-74.19953069093705,5.8516426478265],[-74.19897776764617,5.851883437710532],[-74.19780500586585,5.852601311250558],[-74.19730564158573,5.852940215931926],[-74.19594557245789,5.854679297481549],[-74.19497800401378,5.856427271802568],[-74.19436263429714,5.858531982210403],[-74.19427341895421,5.858995700451703],[-74.19423776863444,5.859401498742174],[-74.1942021183078,5.864386720011636],[-74.1942021183078,5.86485943235397],[-74.1942689402712,5.865327610800476],[-74.19514299799121,5.866923977243258],[-74.19536146698874,5.867258447466148],[-74.19658324046699,5.8682795780859225],[-74.19697117872829,5.868600566119968],[-74.19728781671921,5.8688012574167],[-74.19650298345418,5.87758123231303],[-74.18921234837177,5.887368969715553],[-74.18691587136999,5.897375181116833],[-74.1846908493694,5.906355792350071],[-74.18269763190837,5.910516145697092],[-74.18041451115565,5.911086920164078],[-74.17963865397056,5.910676715179598],[-74.17866661078651,5.910007820523078],[-74.17527763297458,5.9075731095129855],[-74.17341824202994,5.905107296272618],[-74.17100134636603,5.901901158878588],[-74.16424580426511,5.897384088265791],[-74.16035754730733,5.894820116712446],[-74.15715584025406,5.893156845537655],[-74.15460523983874,5.891966292214349],[-74.15130550717195,5.891061063643423],[-74.1461909404266,5.888323166949],[-74.1423873356147,5.885219652364551],[-74.1398055314993,5.882062634018387],[-74.13926595994309,5.880769459140975],[-74.1386327543361,5.879931149849267],[-74.13757600313663,5.878776246049927],[-74.13681788753988,5.878053916567762],[-74.13618476323322,5.8775990815690475],[-74.13393736070068,5.876207800207711],[-74.13333531888749,5.875922472230496],[-74.12029251535596,5.875418561540688],[-74.11294835331341,5.875637079495416],[-74.11130735671185,5.875958096945711],[-74.10882818079472,5.876493183432872],[-74.10817264769261,5.876965877138752],[-74.10004366790807,5.8715926209948455],[-74.09245431337862,5.858906491685763],[-74.08965842712762,5.850581350894161],[-74.08751362550797,5.841337688353015],[-74.08179260116509,5.837578632209653],[-74.08136902049218,5.83722191637282],[-74.0796254821615,5.834488464711778],[-74.0792241245809,5.833302351183209],[-74.07914838818424,5.832976853072326],[-74.07911271588274,5.832834151556194],[-74.07925979686135,5.818502617393312],[-74.07325340407941,5.818881632748531],[-74.06185594332888,5.819782345809078],[-74.06054499636694,5.82019263118532],[-74.05914036825284,5.820232767197855],[-74.05628652984471,5.8195505164116055],[-74.05072161410587,5.817896191551435],[-74.04990111585956,5.817637499432684],[-74.03647027566844,5.812277717907087],[-74.03123084239458,5.809856369711314],[-74.0263570529729,5.807029298464487],[-74.02603151959825,5.806824183136536],[-74.02574166801486,5.806507582950332],[-74.02571495108211,5.806329262133624],[-74.02435937561977,5.7919441950898705],[-74.0244217753368,5.789317802395388],[-74.01927597147215,5.779717372013446],[-74.01189623685893,5.775284964354834],[-74.01308235371259,5.767245207408298],[-74.00951062146626,5.76267913230174],[-74.00698223295956,5.760775074461627],[-74.00383414126573,5.757305893743964],[-74.00139946793735,5.753859033228313],[-73.99876417914942,5.748954024998844],[-73.99840300098444,5.748151326073499],[-73.99811310749101,5.747032151794798],[-73.99791243243104,5.746247341807269],[-73.99766719251696,5.743964251643527],[-73.99764495502477,5.7436075477044914],[-73.99527709567678,5.737338015707588],[-73.99172771774347,5.73192471345414],[-73.98832981931041,5.727314010218791],[-73.98296997923134,5.721356616372866],[-73.9814048895536,5.720732349501515],[-73.98089203810923,5.720776933018295],[-73.98046401818702,5.720910734512612],[-73.98012952887704,5.721066747264849],[-73.97990659546413,5.721312042056326],[-73.97715981220898,5.724535950700555],[-73.97572847418245,5.727643936405341],[-73.97295490697408,5.731246891596807],[-73.96531196577105,5.737850818807792],[-73.96289958382086,5.739170699689465],[-73.9619408645948,5.7395497756359015],[-73.95870799954466,5.739112796453369],[-73.94124616701494,5.738002410384983],[-73.93791967297533,5.739496244503206],[-73.93542702979528,5.74020080259558],[-73.93305481815803,5.740771549894625],[-73.92736056662183,5.742118187019763],[-73.92339641428804,5.741493916509814],[-73.91219511434726,5.737926645067341],[-73.90336613153677,5.7384751031750785],[-73.89981668128719,5.7374807020823],[-73.89825154744148,5.737757198222184],[-73.89443007770764,5.737904347351821],[-73.8940733698904,5.737882078891937],[-73.89354270300643,5.737824097670212],[-73.89254838279909,5.737690280605541],[-73.89117940113498,5.737489621551298],[-73.89017609719306,5.737320176553033],[-73.88916839194113,5.7369590259712275],[-73.8862298499977,5.735795190912146],[-73.88589537755216,5.735563296816384],[-73.88569027962706,5.735139672624209],[-73.88592211383626,5.734453039195408],[-73.88637250303955,5.733186593719268],[-73.88655534999391,5.732927998294456],[-73.88686299544071,5.732388435641831],[-73.88708146019886,5.731871211349283],[-73.88768795656479,5.730346153165118],[-73.88779499041759,5.730074145553319],[-73.88788417029717,5.729597044444769],[-73.887857344563,5.7291467083687575],[-73.88667126662034,5.726680812413017],[-73.88472705220055,5.723220533368971],[-73.88414297662911,5.722770175593082],[-73.87786903381192,5.722854845905665],[-73.87721800439955,5.722993113363031],[-73.87787343022701,5.71777148948456],[-73.87913537672448,5.716045818612299],[-73.88038843265504,5.7142175850286625],[-73.88244403353883,5.711109611376153],[-73.88305942659467,5.70939734859592],[-73.88314412261536,5.708313763599021],[-73.88305045455643,5.707573551372353],[-73.88022343455562,5.707555730318577],[-73.8784531280951,5.707537887704515],[-73.87434630723772,5.708006050955428],[-73.86502228805148,5.710204430645414],[-73.8620213807432,5.711033795875897],[-73.86114292205087,5.7115064458123515],[-73.86050081023131,5.71216199029935],[-73.85725459601136,5.716683520605006],[-73.8569067937816,5.7172988522258],[-73.85618884404555,5.719786992534194],[-73.85464597457023,5.726203629200887],[-73.8478637201178,5.7325534644239236],[-73.84239241238376,5.736508663692196],[-73.83902573731352,5.738586570784778],[-73.83708159002087,5.739745992075003],[-73.83680069935856,5.739799464214357],[-73.83639488792626,5.739861895946725],[-73.83556549363524,5.739924284621924],[-73.82653140366416,5.740561993859776],[-73.82583578002443,5.740593172400688],[-73.8244088060627,5.740557486037491],[-73.8234188929259,5.740410343105125],[-73.81921399550622,5.737476301008273],[-73.81881263548198,5.7363793405022925],[-73.81862981536248,5.734252377723553],[-73.81893747720451,5.7229529713280005],[-73.82008797389159,5.717512857581514],[-73.8204045186138,5.716696850171374],[-73.82039114602307,5.716567564794435],[-73.82016820954524,5.716054777785819],[-73.8187770048681,5.715033587028966],[-73.81452749217397,5.714980138291106],[-73.81150867451552,5.715693561213673],[-73.79690066458227,5.727813390004203],[-73.79116620328308,5.735081747584442],[-73.78027713044864,5.749680848207002],[-73.77472998912441,5.757239029342178],[-73.77117607161958,5.762273322782037],[-73.76889299932863,5.765617665379268],[-73.76687751464137,5.768623131195828],[-73.76270823106208,5.773184748508532],[-73.76081756226326,5.771405587410567],[-73.74900990542302,5.768685530154603],[-73.73448657726512,5.771218310267946],[-73.7339470432403,5.770995334600831],[-73.73170413210698,5.770116869174003],[-73.73103529440768,5.770027703331331],[-73.7307320764782,5.770014353997337],[-73.73045561531528,5.770041104488513],[-73.72736540199433,5.770379976794182],[-73.72033789969441,5.772078895974612],[-73.71982059675611,5.772658599461268],[-73.7182777492637,5.774544799938276],[-73.71791210471369,5.77500850764109],[-73.71634248356084,5.781162051909935],[-73.71431363138926,5.781179905997908],[-73.70581457240414,5.773768872745537],[-73.70163199135668,5.7693766786022795],[-73.70072229369609,5.7683644625661215],[-73.69865323268554,5.765885191573194],[-73.69835454617998,5.765492817109227],[-73.69808693131863,5.765140509141539],[-73.69764554563345,5.76454750108665],[-73.69744483381913,5.764230882805226],[-73.69574591485888,5.760663627917965],[-73.693717036034,5.757658193079925],[-73.69336032772854,5.757225669098435],[-73.69298574741103,5.756949143095224],[-73.68999815053789,5.754826647968539],[-73.68429943940528,5.750973985685643],[-73.68265402742472,5.750938287384982],[-73.68148576875869,5.751094395946326],[-73.68052254306684,5.751584893937761],[-73.67519835996565,5.749368695709402],[-73.67462759238192,5.749096655468686],[-73.672897496706,5.748258404285602],[-73.67232672267991,5.747687602583836],[-73.67170241711236,5.7468760798641965],[-73.67122091643304,5.7458905700386165],[-73.66914742374453,5.741453831847409],[-73.66788100746577,5.738720328712424],[-73.66742168262651,5.736651378796788],[-73.66702936055303,5.73464025097854],[-73.66640054789129,5.7333337308765095],[-73.66571838141495,5.731960379276381],[-73.66420224815522,5.729124389400852],[-73.66153569453586,5.726007504425273],[-73.65570325069083,5.719439229022382],[-73.65264423653873,5.7161572910279075],[-73.65243916885608,5.715929894978687],[-73.6514358343069,5.714436065673819],[-73.6513109785445,5.713936686313443],[-73.65128421089634,5.713450617591796],[-73.65145370933428,5.712870968359271],[-73.651761357174,5.712393849617775],[-73.64752969919464,5.71315191712372],[-73.64678504050794,5.71331684157395],[-73.64401145503038,5.7152075394869355],[-73.64093016839874,5.720478176766819],[-73.63954787714727,5.723274032963695],[-73.633492383175,5.738907616389663],[-73.63006337270045,5.7514065189666175],[-73.62607247545262,5.768404594813161],[-73.62592083330563,5.769514947938197],[-73.62571133698034,5.7714011145622335],[-73.62571133698036,5.771610721959658],[-73.6257202306966,5.772239422641388],[-73.62583611847937,5.774455562546536],[-73.62622851941732,5.778566908249723],[-73.62831098082646,5.785447270922148],[-73.62894413259438,5.787766043615093],[-73.62924732248547,5.7895229291103405],[-73.6272051165798,5.797072134806997],[-73.62253643539347,5.81583602804519],[-73.6169313447849,5.830047203131479],[-73.61529931670776,5.8328475241219415],[-73.61159823237851,5.839718991329514],[-73.61140201807328,5.840106916555127],[-73.6083163798473,5.84737530059596],[-73.6040044050802,5.858251059236867],[-73.60135566838429,5.865122476960054],[-73.60022306500915,5.868578295745415],[-73.60016960626406,5.86898857311434],[-73.60015621911397,5.869416590290632],[-73.60034345944327,5.8698669998505215],[-73.60442353146654,5.8771576355327],[-73.61057708940672,5.8864637450488315],[-73.61086691987154,5.886784818713949],[-73.6112682436529,5.887145977336853],[-73.61190144779924,5.887529475775918],[-73.61273975750738,5.887957579377447],[-73.61649436572723,5.889393377427944],[-73.62890397674418,5.893856978975061],[-73.6322305075048,5.8983249941374885],[-73.63360386480622,5.907845129444621],[-73.63590031905186,5.911162699091246],[-73.6326362812839,5.91178695997672],[-73.62805234747069,5.915273990708031],[-73.61766703790279,5.924745179536078],[-73.61244992967283,5.927670318879984],[-73.60918138740637,5.92962337645008],[-73.6078748903799,5.930528625490219],[-73.60758954788585,5.930827323753098],[-73.60449936045828,5.935201712673122],[-73.60331322652704,5.937034386753152],[-73.60302338546326,5.937565074101351],[-73.60286283166747,5.93825172591544],[-73.59631685653575,5.952971248197022],[-73.59324015782757,5.9594280398594455],[-73.59247760244459,5.962527079010128],[-73.5908544561843,5.970335024091339],[-73.59114431429019,5.970883440363689],[-73.59131377237509,5.971431927688173],[-73.59173741698098,5.973153163494405],[-73.59179986293127,5.9735633929304495],[-73.59183104097424,5.974227782361672],[-73.59187120403709,5.975025999291366],[-73.59188459172296,5.975690407822238],[-73.59163040524395,5.978923195843319],[-73.59124243107735,5.981527360001452],[-73.59070737056136,5.984715626995382],[-73.58996268622062,5.988117885564417],[-73.58872300728332,5.990721981285654],[-73.58776437825473,5.994654909938099],[-73.58775099030272,5.995190023429534],[-73.58783122814987,5.995930221662741],[-73.58817014959835,5.997700495373171],[-73.58598961348117,6.006324394838017],[-73.58580236017607,6.006632107081563],[-73.58479016507997,6.008183841424961],[-73.58073684257027,6.01240663979723],[-73.57582288038347,6.014359671572337],[-73.57382076263252,6.0145693128585505],[-73.57154662246542,6.014979543460016],[-73.56994128451161,6.01574643808205],[-73.5661555493536,6.018002809603827],[-73.56494709016934,6.019371750227985],[-73.56073324383705,6.024513070725416],[-73.54996900150623,6.031134838612895],[-73.53947229545,6.038278348756731],[-73.53705542076615,6.042001669167046],[-73.53190073032292,6.049185294765323],[-73.53068784884982,6.0517626412679935],[-73.52739699061543,6.057349910373742],[-73.52446739581089,6.077634325400668],[-73.51539316719239,6.0864588893595],[-73.51402864646164,6.088898003742019],[-73.51351585906343,6.0926971530629475],[-73.51383243015167,6.096563198346526],[-73.51393948176626,6.099345675226171],[-73.49946967295665,6.107166957321777],[-73.49741405944113,6.108032062672692],[-73.49566603510773,6.106105707651506],[-73.49028838299054,6.10258301513302],[-73.48855827864125,6.101481606060009],[-73.48394753449898,6.099265433125831],[-73.47411523013601,6.095114012532401],[-73.46855030221576,6.092715033645285],[-73.45991295769635,6.086365235086523],[-73.45795100386103,6.08425164075848],[-73.4551194361871,6.080840454732945],[-73.45443280187725,6.079939657767418],[-73.45403144749893,6.079096939093863],[-73.45135600205373,6.077754752979501],[-73.43840672067827,6.0719579038271405],[-73.43663645100631,6.071235566541459],[-73.43018421193472,6.068796435328221],[-73.42803486107168,6.068756288915675],[-73.41851911836031,6.0704953536838175],[-73.40960987781891,6.059512526053582],[-73.40353210582789,6.055664317842177],[-73.40593107646997,6.050161806009638],[-73.40110190224252,6.04699584640777],[-73.39896601995648,6.045118541825595],[-73.38868336164258,6.029007874319912],[-73.38495995352011,6.021253430834518],[-73.37791012511286,6.0121658055902945],[-73.37344207490472,6.006712350117841],[-73.3707934184978,6.001682457281749],[-73.3711590407817,5.997379449776886],[-73.3725993077524,5.990548063168543],[-73.37551560992328,5.971784225436554],[-73.38022438721784,5.957100366849882],[-73.39115363662364,5.929565442174332],[-73.39314686989464,5.928187574280464],[-73.39382461717372,5.9276033991719865],[-73.39430180897773,5.927054932996072],[-73.39484582073585,5.926274650933112],[-73.39511337437034,5.925886705118317],[-73.39674980611412,5.92183780223324],[-73.39667399236565,5.919296125848893],[-73.39638422711695,5.9150465864834345],[-73.39974186478379,5.9061551829871615],[-73.40081654959485,5.904090580614162],[-73.40754530354441,5.892786755562861],[-73.40969018340441,5.890575065953748],[-73.41970971085705,5.889290841732643],[-73.42013334077791,5.889277485108959],[-73.42050346549209,5.8893621454487235],[-73.4229827270829,5.89055274814808],[-73.43180724842688,5.896291584876171],[-73.43276155217052,5.897036311071138],[-73.43380945604244,5.89833833840485],[-73.43500445942742,5.898021732170889],[-73.43604345054823,5.8979281175592115],[-73.43752833138798,5.898164439138721],[-73.43932089269808,5.8984721334445736],[-73.44059615927911,5.899042850930802],[-73.44257598589554,5.900394020403329],[-73.44843083870923,5.897727424066485],[-73.4562119147326,5.890410083773505],[-73.45609152748598,5.889433501907554],[-73.45503024667812,5.8884569766237105],[-73.45229241627592,5.884430393842738],[-73.44946535886234,5.880158579615217],[-73.44921558555298,5.879342566923826],[-73.45042848488106,5.872109929015541],[-73.45277397344243,5.865452450382536],[-73.45853962787362,5.852784183588588],[-73.45878480498348,5.852378365325542],[-73.46030989556517,5.850144385709012],[-73.46064875315086,5.849685087408601],[-73.46158512650644,5.849243624082731],[-73.46373440918138,5.848405313474506],[-73.46308790047622,5.847468902507057],[-73.46287833089963,5.846831239891676],[-73.46228081822302,5.843901674720661],[-73.46219163171504,5.843223857651099],[-73.46217823575445,5.842483646581416],[-73.46496511681501,5.833939971085388],[-73.46517917956011,5.833373728440239],[-73.46603084327296,5.831371530914717],[-73.46695388716918,5.829249014195491],[-73.46725263714956,5.8285935407591385],[-73.46801519839069,5.827300430187193],[-73.46884904995106,5.825935893713764],[-73.47156464129793,5.821597228763272],[-73.47292907663609,5.818266264504122],[-73.47347756332526,5.8168304585593855],[-73.47229149616241,5.816335486809348],[-73.46951343176205,5.815247447859317],[-73.46537535110946,5.813967669194918],[-73.45242620224464,5.807341476405223],[-73.43928969204545,5.800362948237416],[-73.43819272095858,5.799760984554891],[-73.437149244466,5.799105535754439],[-73.43589185077367,5.798195822639318],[-73.43145944308341,5.793000963991546],[-73.43101803161,5.792220671377365],[-73.43039821966686,5.790749174950448],[-73.43018861797842,5.789933154962192],[-73.42830686939119,5.77890575608289],[-73.43068362292294,5.772052109480989],[-73.42173415255128,5.7673433107883225],[-73.41366765542716,5.76575143765486],[-73.40508384971426,5.760779571019121],[-73.39370869160246,5.753930335852556],[-73.3926964761514,5.752962697444754],[-73.39048037774815,5.751067615096822],[-73.38932541821104,5.7511835886002505],[-73.38738575220476,5.752717460803906],[-73.38597220524477,5.754180068465073],[-73.38429108231969,5.756494379274134],[-73.38173159882177,5.760525349782116],[-73.38007724509976,5.762589923762432],[-73.37631825170386,5.773831363541528],[-73.37374086520383,5.781318137202936],[-73.36964743823603,5.788002333335531],[-73.36579921720123,5.790691222948286],[-73.36142932042976,5.7952930128590845],[-73.36034130742536,5.796639623799288],[-73.35993995733678,5.7972504892433285],[-73.35930231108341,5.798338537233398],[-73.356988005553,5.806213352735144],[-73.3570950457632,5.809865353608849],[-73.35675611490007,5.815679971448035],[-73.35658673922025,5.817120315737669],[-73.35618538219663,5.818346502480478],[-73.35041086822226,5.8328743163980254],[-73.34915341861009,5.837574149967784],[-73.3480653441808,5.846951687091238],[-73.34998728149345,5.859182951857706],[-73.35147212521494,5.872573648375416],[-73.35037074940412,5.872435425154785],[-73.34830174176616,5.871240381063671],[-73.34803413032519,5.870919307437535],[-73.34737423059008,5.87008104394233],[-73.34492171765062,5.866023210750899],[-73.33019328635356,5.851994921131029],[-73.32923906966838,5.851540116541102],[-73.3277675688754,5.851352786775017],[-73.32304092296962,5.851504394393327],[-73.31835438967182,5.852284749619647],[-73.31645475559183,5.8549290035945045],[-73.31636559878793,5.854991409448735],[-73.31630316201365,5.855036022974535],[-73.31608022479843,5.8550984685650205],[-73.31582606889917,5.8551207389594735],[-73.31186191847596,5.855352635045271],[-73.30339411228557,5.853479762237092],[-73.29474341990057,5.850648266992739],[-73.2928082210254,5.850389635984177],[-73.29007031926218,5.850358383576626],[-73.28825097107493,5.851018369002229],[-73.28471048727576,5.853305869480855],[-73.28376516093304,5.853988120337856],[-73.28322114205315,5.8548397893278405],[-73.2829580401489,5.856137418297114],[-73.28298035523366,5.857180855182821],[-73.27981878913718,5.857341400525617],[-73.27111911999256,5.853805306693523],[-73.27048148533012,5.8535466887472145],[-73.26887623238449,5.852503240152168],[-73.2648540953496,5.847076492432893],[-73.26427439479066,5.846260515304182],[-73.26393550052967,5.845266148403991],[-73.26385082187743,5.844396628876682],[-73.26401127034835,5.843085632642304],[-73.26449288502727,5.841261889401078],[-73.26484959597202,5.8402718973514585],[-73.26513053693249,5.840004378170924],[-73.26160786067891,5.832499748496736],[-73.25173541226985,5.818484743829222],[-73.2514188171256,5.818163715442282],[-73.2508168531414,5.817664264563488],[-73.24998747387073,5.81720500600215],[-73.24745908991149,5.816139303412494],[-73.24689284315726,5.815960881880572],[-73.24642909931114,5.816010002265852],[-73.24012836889862,5.817597441648381],[-73.23681526388877,5.819064419545214],[-73.23552656586463,5.819666423123178],[-73.2335957998696,5.820758881620571],[-73.2333638692263,5.821026452446035],[-73.23304283793799,5.821592734500047],[-73.22417365978811,5.824821129284411],[-73.21509495202316,5.824540243991488],[-73.20635071799902,5.826141007877823],[-73.20561046496906,5.826337221616705],[-73.20495500055672,5.826582483704169],[-73.20431735660279,5.826970472955472],[-73.20326943469686,5.827697236012673],[-73.19279498774408,5.839005539820771],[-73.18606173586974,5.848191302588533],[-73.18397940014681,5.850447615695397],[-73.18593687908665,5.854598990675493],[-73.18852320975803,5.858630018919447],[-73.19699548285752,5.871632796110808],[-73.20227947614822,5.8756459899171265],[-73.20559264269917,5.885665570914251],[-73.21664676858404,5.890164842197036],[-73.21755196744262,5.889990892996072],[-73.21868451844114,5.890080107709418],[-73.22018725706742,5.89045464240142],[-73.22098101508902,5.890704390384498],[-73.22123068961179,5.8914312144383425],[-73.22136893753337,5.892247197380383],[-73.22172562757694,5.897638252158381],[-73.22174794881235,5.909544043800303],[-73.22132429498468,5.910569654123735],[-73.22072233974876,5.911403543362172],[-73.21930439034679,5.91272786868243],[-73.21365914534762,5.917418875018356],[-73.21224115121294,5.918515800937673],[-73.20873186068279,5.9209548809974075],[-73.20830377172447,5.921503394989827],[-73.21134043135011,5.926506489689213],[-73.21377957632633,5.930497346993916],[-73.2150503982307,5.9325396532144605],[-73.21695441239709,5.935589676992102],[-73.21736016315764,5.936071239762636],[-73.21886741098392,5.93664199501147],[-73.22087399877888,5.937542750251799],[-73.22287606834763,5.938867080335695],[-73.224338727064,5.940240525516045],[-73.22473996424155,5.941141217697106],[-73.22070001841102,5.954830664899936],[-73.21969231569848,5.968199046688358],[-73.21694100136781,5.982949781099745],[-73.20281460158303,5.997941279161372],[-73.19712924497803,6.002605530388307],[-73.18109432697042,5.996652634604763],[-73.1755114989472,5.994538998444338],[-73.17120401371547,5.99032515625895],[-73.15902624587385,5.980747029852551],[-73.15520479802302,5.974999239067126],[-73.15513790455623,5.972332695436793],[-73.15497287657868,5.97100388621524],[-73.15474545648496,5.969706219820363],[-73.1541836576517,5.968310565467313],[-73.15282363055071,5.966745447239567],[-73.15109797077162,5.965247171654272],[-73.1488103957149,5.964078886765766],[-73.14107831522198,5.960939699786033],[-73.13646764522447,5.959370061695895],[-73.13443878759642,5.959334408082069],[-73.13025613071144,5.959258621362753],[-73.12923496839808,5.959552847416114],[-73.11946954105522,5.96159516308456],[-73.10791152365165,5.963570518347189],[-73.10372892180817,5.962799142657506],[-73.09131034079596,5.9643374830011755],[-73.08978081179303,5.964569358895339],[-73.0869894672063,5.9655950021836786],[-73.08456373021103,5.9670531045263555],[-73.08396618535947,5.967449952068895],[-73.0822048825001,5.968711851879406],[-73.08113910626358,5.970169983110538],[-73.0810053660381,5.9710662964916414],[-73.08218705055694,5.977188655077317],[-73.0807110472081,5.977090553714816],[-73.07742470159205,5.977420478149357],[-73.06888106481877,5.9812196559739945],[-73.0678153171418,5.982040108422833],[-73.06764590306805,5.982677771706638],[-73.06653106350024,5.9906238642335605],[-73.06481439099974,5.998940100319827],[-73.06210317536576,6.010172571295485],[-73.04789205690048,6.0188589240695585],[-73.04574279908103,6.019978157365122],[-73.04017333565733,6.022586741267846],[-73.03950001163182,6.022827523802549],[-73.03897828550875,6.022939035596533],[-73.03839863848765,6.023010346242642],[-73.03441664513196,6.0234518002077895],[-73.03406434632802,6.0234339844132485],[-73.03200873388982,6.023001438591387],[-73.03158067418974,6.0229077597611855],[-73.03137556197154,6.022626840494033],[-73.03120612130736,6.022270115634886],[-73.03111694196096,6.02183760856687],[-73.03109910608758,6.021427407354886],[-73.03122837109858,6.0211642835295995],[-73.02834335718194,6.016896925765577],[-73.0281739143146,6.016540166661803],[-73.02795096298588,6.015884686793241],[-73.02763432669222,6.0146540194011395],[-73.02750947368561,6.012576035975803],[-73.02756748620206,6.01038664984085],[-73.02520859917678,5.994396324474734],[-73.02045517034088,5.980287699241568],[-73.02064245548375,5.979449382276575],[-73.020736143041,5.978847449870338],[-73.0206647963662,5.978120598578544],[-73.02051759873852,5.977616723255211],[-73.01951432822771,5.975124035787951],[-73.01798937042449,5.971418547503038],[-73.01707518372143,5.969848928658561],[-73.0145424138604,5.966460042790021],[-73.01307093540001,5.9645871986742725],[-73.0112427001635,5.963106773882396],[-73.00898193521724,5.965122286325456],[-73.00476808861234,5.9704955317902755],[-72.99523003294729,5.985941880768644],[-72.98831846200228,5.9973883519942435],[-72.98458617973658,6.006168338379825],[-72.98070679593992,6.011603984590086],[-72.97190003262597,6.017356212764038],[-72.9709726016747,6.017967146738805],[-72.9701922161217,6.018698422540817],[-72.97004949205633,6.019121989116873],[-72.96996037957533,6.019492085822615],[-72.96671410342357,6.024508601667083],[-72.959579581981,6.037225972654029],[-72.95666773729172,6.044752939287323],[-72.95376486781466,6.052360145755247],[-72.95301127835091,6.062897023744869],[-72.9504740350564,6.069072902628855],[-72.94508299014274,6.07534684042576],[-72.92569932451887,6.085941618143945],[-72.92486994476671,6.085937213520423],[-72.92277417770487,6.087930409404778],[-72.92270280143983,6.09002170923272],[-72.92269829536178,6.092318189594433],[-72.9227563336406,6.095042654005703],[-72.92278751569141,6.095872096632189],[-72.9233716827233,6.098346889906394],[-72.91842207910902,6.103082423603213],[-72.910694432849,6.106810265474868],[-72.9101147411725,6.106614002339433],[-72.909584167042,6.106614076850418],[-72.90862098317795,6.106854811685288],[-72.90739020755768,6.107331934366407],[-72.90664115817118,6.107840266616274],[-72.90390766234518,6.109690816942748],[-72.90091564336207,6.1117865978935875],[-72.90013971500711,6.112459892206563],[-72.89960911881089,6.113110949072991],[-72.89934161207955,6.113663877993689],[-72.89839181656784,6.117213352014488],[-72.89770952614748,6.12049519210159],[-72.89710312426374,6.122327893924627],[-72.89500287808782,6.123870771458961],[-72.8945213024469,6.124035766650859],[-72.89411102051103,6.124035742561705],[-72.89372309072564,6.124035748249566],[-72.88511258297684,6.123652229557869],[-72.87324241301468,6.124664445974423],[-72.87252011917963,6.125123785767596],[-72.87172192474156,6.125819401258483],[-72.87131169414084,6.126546203986515],[-72.8709950291733,6.127219568587549],[-72.86990702539785,6.132137959490535],[-72.86959937273807,6.135388609217928],[-72.87084341203939,6.139513290422648],[-72.86843555334875,6.144520890245453],[-72.85026027940074,6.143276741960618],[-72.84873964689058,6.143035970779739],[-72.84546224941074,6.143428408118618],[-72.84343782250181,6.143798466532535],[-72.83610255963366,6.146393696058433],[-72.83100141741322,6.149260876006893],[-72.82853104578548,6.15288163860765],[-72.82541412796157,6.15805424276509],[-72.82567279073973,6.15968178559887],[-72.82622572771535,6.163391805871106],[-72.82619444303809,6.165496461270085],[-72.82466500511144,6.169973421274828],[-72.81633984088717,6.184759801881039],[-72.81026208841772,6.195978913744299],[-72.80403270686878,6.215407161505283],[-72.80373840572598,6.215969060031518],[-72.8024052099174,6.216553154190447],[-72.79423609436654,6.218983368180131],[-72.79336658996887,6.218938808392801],[-72.78653966097131,6.215630129086995],[-72.78348524084393,6.213891082945224],[-72.78103711469741,6.2120984974854885],[-72.77079456047524,6.214368239957726],[-72.76076612421024,6.217650106657782],[-72.75593685524363,6.2187069304370395],[-72.75422904813517,6.219607646957436],[-72.74551595590677,6.228021994061842],[-72.74467766553971,6.229181364667628],[-72.74405338765196,6.232409728166007],[-72.74411579747367,6.2335958545207015],[-72.74453047967775,6.23533045090921],[-72.74507899909621,6.23581645946785],[-72.74591277876459,6.235950256896269],[-72.74680905497259,6.236431827957743],[-72.74766528523541,6.237181013862739],[-72.74847236117871,6.237952378782321],[-72.74875770956143,6.239093900459151],[-72.74890038363003,6.242478403847115],[-72.74888261701533,6.249612920456578],[-72.74847678029334,6.253782233125177],[-72.74424512644745,6.260756209422187],[-72.74549367969577,6.271694397185601],[-72.74585487874157,6.274878239123026],[-72.75113887674007,6.2778346079414],[-72.75442077908491,6.289196393168778],[-72.75813073479551,6.306814330281569],[-72.75801485024655,6.313043673581984],[-72.75791673161336,6.315094867309729],[-72.75757782522716,6.317003371695422],[-72.7571363804777,6.317507245855553],[-72.75656561244581,6.317743559769948],[-72.75509409083365,6.31829202879456],[-72.75388571769687,6.318836022622388],[-72.75318110872064,6.31984382574009],[-72.75033622853287,6.325636158301347],[-72.75018462693447,6.330086358352775],[-72.75011329027883,6.336320174216317],[-72.74910997547614,6.343713320430714],[-72.74853476989217,6.347173606306917],[-72.74837865789314,6.347628435072625],[-72.74132889508958,6.352667196880758],[-72.74021407129241,6.353429707699771],[-72.73903692161899,6.354205603559592],[-72.737989008418,6.354754105037779],[-72.73743163476875,6.354910176624304],[-72.7317818880851,6.360854142961572],[-72.72953456257173,6.368349911165478],[-72.72576663702928,6.371627310664225],[-72.7291109263246,6.380389435465262],[-72.73260236384961,6.390944158663622],[-72.73361458388983,6.400138798650536],[-72.73460903219232,6.413324389247871],[-72.73464023828753,6.424226895798787],[-72.73459559372817,6.4331406110964835],[-72.73522431465545,6.437265289289597],[-72.73797566032574,6.440270771247207],[-72.73634808961458,6.442049898043274],[-72.73185773959075,6.447440983768494],[-72.72689478384913,6.4546424502498025],[-72.72548117214457,6.458053590321271],[-72.72801841590737,6.463640868451559],[-72.72924919218318,6.465188161275812],[-72.73036839421918,6.466467914135837],[-72.73120222308314,6.467422189195551],[-72.73380633071471,6.470289414557568],[-72.73551418774977,6.472349471199563],[-72.7368876080249,6.475047291122119],[-72.73826102073681,6.483104822709519],[-72.73825651125118,6.483479416519139],[-72.73818075188049,6.483992256915465],[-72.73756538652022,6.487220605858517],[-72.73623210472867,6.49010114847213],[-72.74100782346137,6.492526959248569],[-72.74734864091343,6.494199106476668],[-72.7536270697089,6.494185740543365],[-72.75949528256177,6.496085278424213],[-72.76597874331846,6.499986998672796],[-72.77211449085229,6.50793755769631],[-72.77254256268127,6.5094715342083465],[-72.77372424268759,6.51506771507949],[-72.77375544386888,6.518911448726976],[-72.77569072100196,6.523812031379164],[-72.77845090622102,6.528685818066174],[-72.77878527528514,6.528984562913252],[-72.7792267716083,6.529252100110553],[-72.7796593398505,6.529390353480992],[-72.7845999602404,6.530919823242322],[-72.7859689607787,6.531338973894401],[-72.78791757773098,6.531762542946746],[-72.78822966159679,6.531789347457143],[-72.78856410757766,6.531749196940509],[-72.78888962614705,6.531700129427416],[-72.79720138512326,6.5302018794753325],[-72.80680627944156,6.538210423979857],[-72.80957098461681,6.540555946864975],[-72.81094877227378,6.542375217335357],[-72.80940147679866,6.542437690780698],[-72.80885301000747,6.5425982012605415],[-72.80808607411431,6.542959335165466],[-72.80737260338333,6.543579205344381],[-72.8068152057485,6.544462117015694],[-72.80642731683801,6.54513541666546],[-72.80603491906427,6.5462367914195605],[-72.80567813589307,6.548626893313275],[-72.80562015970584,6.549746150694501],[-72.80557561811565,6.550700400927204],[-72.8056246679635,6.552649004414887],[-72.80579850631587,6.553982275631965],[-72.80614636298108,6.554437088086132],[-72.80776950723579,6.555908601728067],[-72.80580743265948,6.560233913728305],[-72.79774987794138,6.566855695889691],[-72.79350923831363,6.569022838213535],[-72.78299027928985,6.576795065179239],[-72.77759027351654,6.579804901300375],[-72.76995626531205,6.580027892406929],[-72.76769999636724,6.5821102569019],[-72.76709354167564,6.582605224365661],[-72.76671902698077,6.582792539266094],[-72.76630871044772,6.582854912034531],[-72.76580487688712,6.582872807136509],[-72.76538121221928,6.582859405423813],[-72.76460088457371,6.582837081527494],[-72.76376707746496,6.5826944361678414],[-72.76304022191037,6.582551733977024],[-72.76204137821968,6.582297586885697],[-72.76175153604147,6.582208367392092],[-72.76016858054477,6.581637633027631],[-72.7598386052414,6.581423561384397],[-72.75958438237299,6.581120354556788],[-72.7594372955217,6.580745794563265],[-72.75441636007598,6.575724882865192],[-72.7493374239148,6.570980397111059],[-72.74656834677695,6.569834359128596],[-72.74545796560433,6.569749617980479],[-72.74437887454144,6.569553454063225],[-72.74354499954768,6.5693528012687645],[-72.74305004841456,6.56917890416059],[-72.742737907626,6.568906841626039],[-72.74254616766999,6.5686036626424755],[-72.742456971563,6.5682290647920745],[-72.74247933823388,6.567783210862131],[-72.74263987315142,6.567279325636793],[-72.74307683424269,6.5662537458906245],[-72.7432997788013,6.565789943825229],[-72.74345138459465,6.565428789290398],[-72.74365205244214,6.564782207560509],[-72.74397312066176,6.563694200872844],[-72.74444128428155,6.561567182364106],[-72.74452155112083,6.561165898315938],[-72.74454391760625,6.560608520509971],[-72.74448592707736,6.56026957573139],[-72.74435659822868,6.559912861506184],[-72.74417378808877,6.559609657325218],[-72.74382151518606,6.559275210506625],[-72.74342910819891,6.55892292176049],[-72.73974589972762,6.556755847533735],[-72.73132713933624,6.5521540565814504],[-72.72476773399363,6.553197490958092],[-72.71877919285559,6.552051489936973],[-72.70799711290141,6.541697408833538],[-72.70292706523631,6.534491530351045],[-72.69809343078389,6.5253905133854575],[-72.6904237942969,6.5116029545311696],[-72.6896032708148,6.511027750451544],[-72.68715079537176,6.508811552994259],[-72.68681188334746,6.508365677577412],[-72.68659781916999,6.507897461544062],[-72.68456893640372,6.503103891740894],[-72.68113546781333,6.49460040454464],[-72.67949002769204,6.488999826527865],[-72.67952575117683,6.482761482456905],[-72.67819694239788,6.477865394563343],[-72.67564629558566,6.472193463256773],[-72.67245357557302,6.4666284645198315],[-72.66920731812294,6.461224044494487],[-72.66598339257342,6.454508660023535],[-72.66062362491157,6.44319593913089],[-72.64907010379234,6.436400268761946],[-72.64124433888924,6.436765912877744],[-72.62960611714671,6.439535002799587],[-72.62557954751097,6.440328679826178],[-72.6234346826319,6.440698782585749],[-72.61095366924992,6.4467810095652185],[-72.60146915552254,6.455088331969543],[-72.59670235773403,6.462093591906669],[-72.58782880815936,6.472180045104734],[-72.58494371764603,6.47488675782444],[-72.58462271887956,6.475167694821775],[-72.58319577211527,6.476144172272079],[-72.56894004138675,6.482770457621157],[-72.56654994605998,6.48377821880161],[-72.56158250623909,6.485740157845893],[-72.55628509286896,6.486747915002133],[-72.55573219536768,6.486814842632504],[-72.55530411868055,6.486850491863862],[-72.5483300610839,6.487095753182172],[-72.53923796408651,6.487974197867354],[-72.53438644183915,6.496049637091708],[-72.53688803332993,6.497574645144011],[-72.54339828712986,6.5016324036196655],[-72.54365245524163,6.5018865983289125],[-72.54439266430361,6.502675890988721],[-72.54462453767795,6.50297904765631],[-72.5448787045969,6.503589977381438],[-72.54503476079641,6.5042275867561905],[-72.54548072539636,6.509092490878154],[-72.54946711505858,6.5214709357074465],[-72.54941810576969,6.522233503964372],[-72.54921737517927,6.522946951513846],[-72.549065834312,6.523303658824055],[-72.5475719922632,6.526161909221312],[-72.54663114988935,6.5278474611033825],[-72.5431842838867,6.533390104341957],[-72.5390417386807,6.53811677291643],[-72.53642869544622,6.542303881097623],[-72.53673639505304,6.551837439691417],[-72.53684344446476,6.552599960201851],[-72.5371243361363,6.5536434034406135],[-72.53725367978987,6.554102642583788],[-72.53756128816629,6.5546868074012705],[-72.54009859217526,6.559038891471377],[-72.54527556913884,6.5698566592005845],[-72.54229685903633,6.579577503395893],[-72.54221661878488,6.583465851168594],[-72.54212302017024,6.5836174800079705],[-72.54173950919963,6.584246191205773],[-72.54099486991187,6.5851691994120225],[-72.5376772730383,6.588745443750198],[-72.53672745922327,6.589155636207082],[-72.53608091953853,6.5893607928417115],[-72.53183581387188,6.5905959333054565],[-72.52607022729359,6.594350479325765],[-72.52194555499165,6.601636693821586],[-72.5205096898692,6.610715447497074],[-72.51998352597647,6.617310438283227],[-72.51958220005535,6.6188399227769485],[-72.51883758810338,6.6200973254624325],[-72.51352233890644,6.6273880035860495],[-72.51203298832763,6.6286142189060975],[-72.5098257117712,6.630148193883037],[-72.50653489277063,6.631619673353712],[-72.50493853061276,6.6318649090888995],[-72.49781291806254,6.636845709785323],[-72.4951463834416,6.64290117601635],[-72.48871636583911,6.65230098748123],[-72.48715564613696,6.653322154204388],[-72.4862058306716,6.654481493465399],[-72.48570198743926,6.656385544011933],[-72.48553695848557,6.6570989770621445],[-72.48550581241878,6.658530388683006],[-72.48608548977516,6.670623424938478],[-72.48892147593553,6.685311740478123],[-72.48690593735381,6.689391808848117],[-72.48631732425154,6.690903388256321],[-72.48527388695422,6.6942878486273925],[-72.48474322917258,6.701667728700264],[-72.48470756907601,6.702568406881393],[-72.48729837545505,6.712806518606914],[-72.49273394898883,6.720119464529964],[-72.49727777169117,6.724266426920457],[-72.49796900221676,6.725238495657739],[-72.49848618265668,6.726183827462601],[-72.49874933133125,6.727111317814966],[-72.49889196412255,6.728261811165466],[-72.49900345235832,6.731557070501904],[-72.49902132658123,6.732257155954628],[-72.49895443364993,6.7338490364387855],[-72.4987849895363,6.734598147440087],[-72.49837027077315,6.735271485409569],[-72.49781291806254,6.735833315935591],[-72.49709496587579,6.736163300842511],[-72.49570374177357,6.736328262973836],[-72.49510178750228,6.736328326581314],[-72.49437046719,6.736172223012219],[-72.49385318842458,6.7362301776060916],[-72.49342510111428,6.736377303141975],[-72.49222118083287,6.73702390432739],[-72.49169505078396,6.737585771797161],[-72.4893807161433,6.740974671113294],[-72.48788247249595,6.744479526204613],[-72.49030379828815,6.757718618593426],[-72.4908522294324,6.759635997142636],[-72.49118670416522,6.760037350923289],[-72.49306842134392,6.761883406437044],[-72.49479403920596,6.7633236780331565],[-72.49515523040841,6.763595661872525],[-72.49535591203555,6.763698249409178],[-72.49685420365347,6.771604271701746],[-72.49578841969401,6.779291690525394],[-72.49555217003378,6.7822927097575185],[-72.49653309674127,6.788753940581665],[-72.4983212519473,6.7930792890208815],[-72.4988875407017,6.795241920583487],[-72.49870915942361,6.79683385585282],[-72.49851299404307,6.798394495469842],[-72.49122678693884,6.804454458163983],[-72.48355272102778,6.815080458075198],[-72.48417248649436,6.816873041430532],[-72.4844044129222,6.817675705003711],[-72.48434645390398,6.818518445167456],[-72.48362846520253,6.82148375159098],[-72.483120193389,6.822861619164509],[-72.48266085205623,6.824007624944665],[-72.47884390066673,6.833126424520262],[-72.47706021836788,6.842200697690789],[-72.4779609536957,6.842432625884916],[-72.47838012817071,6.84255299880885],[-72.4787145283544,6.842753651285478],[-72.48168881167291,6.845210615156891],[-72.48197860954062,6.845460328661671],[-72.48295958651579,6.846664271234368],[-72.48353484576047,6.8473911473550775],[-72.48620140703869,6.852189132317454],[-72.48865831748634,6.858150907635103],[-72.49466918844566,6.867189564415955],[-72.49550757416289,6.867122625952102],[-72.49760781485797,6.867461526888847],[-72.49830337767705,6.867751376163175],[-72.49883852197179,6.868464832618655],[-72.4994271072253,6.869361102217727],[-72.50062214791313,6.871233926489396],[-72.50157191162592,6.874248275769235],[-72.50176807473495,6.875149036526845],[-72.50241469880653,6.881115339543612],[-72.50150059596342,6.882765178639963],[-72.49713513802878,6.885525366460346],[-72.49640382333955,6.896463517443379],[-72.49655539459118,6.897234923603076],[-72.49678288671763,6.89787703037638],[-72.4972198154908,6.898987403654512],[-72.49770585276522,6.900017454199933],[-72.49808933771057,6.900637252512834],[-72.5029408977932,6.90815975547514],[-72.50567424497662,6.906768537487779],[-72.51214889420858,6.9034554169734],[-72.5139191606347,6.899406538982446],[-72.51407081209261,6.89632081074098],[-72.51403957912093,6.8954958859907025],[-72.51477978149941,6.888325652974511],[-72.53413226472556,6.8869879392034505],[-72.5418822089228,6.8885887272190995],[-72.54736692790581,6.885953445507044],[-72.54692538913882,6.889467206633985],[-72.5469209665268,6.890109310918851],[-72.54699236011187,6.8909387015585235],[-72.54818294229216,6.90012448406151],[-72.55035000273378,6.907807472464749],[-72.55291398835752,6.913055801174576],[-72.55253049323744,6.921590560207312],[-72.54765674372653,6.929179928248729],[-72.54304600755204,6.935083833783593],[-72.54264913962386,6.935516334534165],[-72.542323665954,6.936122806887686],[-72.5421764535204,6.9365909896290265],[-72.542310307625,6.9400690867422385],[-72.54360786752967,6.950084227792463],[-72.54441938074805,6.9533839502444845],[-72.54499017332036,6.955252322686685],[-72.54684966317961,6.957843041367678],[-72.54895878990602,6.960469463097885],[-72.5521381525062,6.964964232299262],[-72.55324396158431,6.966796944124388],[-72.55449697154023,6.96905768290983],[-72.55481358507407,6.970569289924255],[-72.55480916259577,6.971247104634284],[-72.55466646993943,6.971857998473661],[-72.5540822505513,6.973935981796036],[-72.55386383357369,6.975550126136464],[-72.55319937551079,6.981110656990142],[-72.55294079418502,6.98383513336023],[-72.55339559027932,6.986992213969897],[-72.55385932082429,6.988392339383702],[-72.56208196205523,6.999397381551279],[-72.56455675418195,6.999874566532581],[-72.57539678973728,7.001341583297045],[-72.58377099179938,6.998857899896117],[-72.59085653930606,6.9947198107630495],[-72.60110350923041,6.990193860394679],[-72.60953119946365,6.992909406074414],[-72.61164929056469,6.993422228231712],[-72.61204614307995,6.993457876308808],[-72.61337493583042,6.993319661602],[-72.61437824830709,6.992927241434838],[-72.61488211380149,6.992713239945637],[-72.6158541996488,6.992178140697779],[-72.61704031445018,6.991286343430995],[-72.617365874709,6.990675374564388],[-72.62355062904903,6.9875362071705736],[-72.63098390294846,6.987415776179548],[-72.63310199729519,6.987995523294857],[-72.63819428444201,6.989841558067843],[-72.63884083948005,6.9900957484832045],[-72.64056206097914,6.991322002360236],[-72.64113282149255,6.991968569597457],[-72.64145393011056,6.992686433053064],[-72.64227442891332,6.99383692056911],[-72.64442364688178,6.995353036567033],[-72.64668445197431,6.996935955616416],[-72.64808009979515,6.997515641812692],[-72.64854835150459,6.997515691706184],[-72.64912360522017,6.9975156882317755],[-72.65045238581165,6.9970564079353785],[-72.65174552229671,6.996592624336813],[-72.6520710383508,6.996378571964505],[-72.65250355543489,6.996093190446116],[-72.65300743600856,6.995700796178089],[-72.65311443719801,6.995593790708846],[-72.65653457207817,6.992160278089428],[-72.66139056308818,6.97919766565409],[-72.66468581773209,6.971037499340041],[-72.6670759015978,6.965824850224875],[-72.6685028321836,6.965503809770884],[-72.6688640517522,6.965931863728563],[-72.66939911405828,6.967180401115926],[-72.66975140113425,6.968210479326497],[-72.6704246695409,6.97114005089008],[-72.67539216769804,6.990492557173779],[-72.67747010900723,7.004672510857647],[-72.67878999070892,7.0069689330632565],[-72.68298594367737,7.008560879099085],[-72.68743612340134,7.00911376141461],[-72.69174811861632,7.0080124013213565],[-72.6948472322381,7.00486425815643],[-72.70297171544065,7.0021263572366745],[-72.70766706861238,7.0046502046672625],[-72.70906725078822,7.005087213937783],[-72.71883267951858,7.005185298865162],[-72.71958627201306,7.005189803587631],[-72.72084378779623,7.005122906714608],[-72.7217756911286,7.005051546079196],[-72.72249806715692,7.004659170855959],[-72.72285929948679,7.003727183034115],[-72.72365743618631,7.001506569043589],[-72.72376891716354,6.999999365685885],[-72.72391611527094,6.998313830174705],[-72.72420591129178,6.996985074221229],[-72.72547233310027,6.9940108325914965],[-72.7265558352516,6.992039911024037],[-72.72806748111896,6.990612993335874],[-72.72972180288977,6.9892886493314235],[-72.7319513588965,6.987968726155119],[-72.73403821249664,6.98682721710785],[-72.73464916719844,6.987616472881408],[-72.7375252519833,6.991478014008961],[-72.73950951378932,6.994697512613415],[-72.74120398384521,6.997930369211786],[-72.74185505483511,7.004070533044347],[-72.74388834426198,7.012199515852137],[-72.74577010298265,7.016243867620255],[-72.74694731101712,7.018433293188437],[-72.7552189951028,7.0386909764610195],[-72.75468384525064,7.051644701997886],[-72.7498947709143,7.059109196542211],[-72.75248551620194,7.059350059547853],[-72.76112279198121,7.060179394338248],[-72.76442701717536,7.06049604017905],[-72.76572010793963,7.060500486535937],[-72.77229286171918,7.060197231910673],[-72.77304647270299,7.05991187142636],[-72.77394715971133,7.059412469280697],[-72.77496831910658,7.058698966474833],[-72.77605187606981,7.057927557802946],[-72.77703289861972,7.057165050545619],[-72.77754563667983,7.056656736669268],[-72.77794249845402,7.055796118822434],[-72.77824575777123,7.054944434906724],[-72.7785935631964,7.0541506803604355],[-72.77950324745775,7.053236576857273],[-72.78095244114596,7.052286849979008],[-72.78686969081629,7.048790897200262],[-72.78794877711819,7.049272425503372],[-72.78901893174198,7.049767425200247],[-72.79034778175064,7.050378356393565],[-72.791235150557,7.051461906350957],[-72.79227851039876,7.053397103252108],[-72.79259960573197,7.0547348780140835],[-72.7938526039018,7.06171337637042],[-72.79399976043578,7.062520462878969],[-72.79429849153587,7.063305281860104],[-72.79454375193251,7.063942928618163],[-72.79502092697425,7.06473214610621],[-72.79833849422226,7.06949003279965],[-72.80111204093824,7.073191049698092],[-72.81201008094583,7.075491984750738],[-72.81306687690052,7.075349256571361],[-72.81430651681856,7.074591202294974],[-72.8168972168576,7.072945852588106],[-72.81833311681848,7.071915776091684],[-72.8193452562337,7.072076324865869],[-72.82049127862417,7.073035007648325],[-72.82177992754967,7.075050497776566],[-72.82225704960165,7.075862039659379],[-72.82258703142847,7.077061603975212],[-72.82166398278342,7.081649960952869],[-72.82065185296337,7.084280878068282],[-72.81978676986192,7.0858058728960325],[-72.81877003409731,7.089154631190803],[-72.81905548148951,7.090113354664577],[-72.81943893256326,7.090639531261542],[-72.82010782920017,7.091214729865818],[-72.8206340013576,7.091549219748909],[-72.82455347946481,7.0933774025847045],[-72.8291018272768,7.094443125033251],[-72.83092108858067,7.094545726662272],[-72.83350737520476,7.0949827237781005],[-72.83484508957577,7.095847784986585],[-72.83589745938953,7.096614742229214],[-72.83627646647464,7.097332687492233],[-72.83698994300826,7.0991073617708516],[-72.83722632559916,7.100110644811676],[-72.83688743835808,7.1013993630313115],[-72.83592423512351,7.103887561838741],[-72.83563438990062,7.104507368899157],[-72.83481840387762,7.105220775503782],[-72.8344259614996,7.1095283125914985],[-72.83617837906482,7.115797761300755],[-72.84593490775544,7.13391508139029],[-72.84808417093026,7.137183651102873],[-72.8496359990649,7.142855595991075],[-72.85449191120202,7.1482511548245355],[-72.85826435761332,7.153588673737596],[-72.85168273108481,7.159711022150549],[-72.84688022168802,7.163452180641815],[-72.8437320758387,7.166087511752343],[-72.84190389500831,7.1705778117826675],[-72.84182365992179,7.170796377438415],[-72.84140003625669,7.173774988719712],[-72.84152931412498,7.17502799853302],[-72.84242118530194,7.181667597898536],[-72.84216254029259,7.188133303884963],[-72.84053051910318,7.195348184068949],[-72.83776580354404,7.1973681001832155],[-72.83339143600746,7.198500738310453],[-72.83161672998393,7.200279893458439],[-72.83237475687487,7.207213810274303],[-72.83241487597746,7.207459088434748],[-72.83273600887088,7.207762307865517],[-72.83315513985221,7.20787822943441],[-72.83539809591954,7.207655250232213],[-72.836503924535,7.2075259912300975],[-72.83691863151036,7.207432321566769],[-72.83772126780974,7.20720939063617],[-72.83842581495948,7.206772399491913],[-72.83878696783303,7.206527118624168],[-72.84617128165829,7.210174637630343],[-72.85575829432584,7.216297026898976],[-72.85606154739007,7.216542277109702],[-72.85628898693945,7.216791970728405],[-72.85642276420458,7.216956983005579],[-72.85653869242184,7.217206663308904],[-72.857376961762,7.221237684480916],[-72.86364202955997,7.232033153777287],[-72.86545237861287,7.241954638281772],[-72.86826166954341,7.257864773152083],[-72.87052683659952,7.2599382547629565],[-72.87618546989646,7.263460927270594],[-72.87555674942507,7.267857603859591],[-72.87116007720557,7.276726761170879],[-72.87087910787734,7.277096829677849],[-72.87009875599603,7.277819245987626],[-72.86491287203312,7.282135667640584],[-72.86446693310533,7.2824700500661095],[-72.86336555869035,7.283228092331328],[-72.86279035043427,7.283522381040061],[-72.86146595099213,7.283910355447181],[-72.86027540959367,7.284053044060034],[-72.85902680870755,7.28410652804547],[-72.85025135468236,7.290358180843239],[-72.83958518049668,7.2982374784890185],[-72.83793078402725,7.299766955615085],[-72.83473365873576,7.303267308909811],[-72.83424763576278,7.303833601667591],[-72.83405587684966,7.304234974935335],[-72.83591530987917,7.30564405411912],[-72.8387691175538,7.30934953946915],[-72.84229632533697,7.314780697460925],[-72.84063752983184,7.318472872905138],[-72.84026736446594,7.324461454864593],[-72.83983490314411,7.334115386844318],[-72.83990170616269,7.339756169744915],[-72.83802896088471,7.352428913743217],[-72.83798433504532,7.359229049398603],[-72.83871114921376,7.3601208323439105],[-72.83979027763566,7.361092966531598],[-72.84046362610486,7.361556663734108],[-72.84138218616906,7.361748401333732],[-72.84600179924936,7.361703853847076],[-72.8473261929489,7.361360445931691],[-72.84827591879134,7.360820953121637],[-72.8492747721508,7.360339353086953],[-72.85022007309101,7.3602055759897045],[-72.85135720592923,7.3605890683711825],[-72.8551072545108,7.362270144889967],[-72.85602584936771,7.362782957477071],[-72.85520542443138,7.365181924214701],[-72.85458106666529,7.366287800569752],[-72.85384979257533,7.367580891573125],[-72.85268157043308,7.369221892717554],[-72.85151325252048,7.371433562658842],[-72.85108072105251,7.372267452277642],[-72.85042966869094,7.3736408373849285],[-72.85039847727118,7.374180392493699],[-72.85067045549884,7.3747199668022425],[-72.85096479022802,7.374938408241641],[-72.8579968050412,7.379803302726814],[-72.86320501253347,7.383161001555437],[-72.86948345077293,7.386001452038066],[-72.87216334326764,7.387423962948497],[-72.87374629574175,7.389559812772517],[-72.87409856232637,7.390094956734581],[-72.87421457221761,7.390344620614734],[-72.87452663584432,7.391281073711802],[-72.87547201851235,7.3946031050979],[-72.87586890145658,7.396003232659608],[-72.87657342791962,7.399187068111344],[-72.8843678808208,7.412033720937444],[-72.890146878613,7.418655457282455],[-72.89880650759245,7.432023839109174],[-72.90048752662186,7.4350917516572315],[-72.90145515949727,7.445717792072319],[-72.90127679303745,7.447273961659317],[-72.89913647531417,7.455599096969247],[-72.89713430965358,7.460129534965198],[-72.89552906799962,7.467366710463066],[-72.89433400774845,7.470398909007538],[-72.8935001029217,7.474844626304505],[-72.89591248828903,7.478608097831199],[-72.89890015321701,7.478661591178773],[-72.92162368344057,7.492368908259396],[-72.92650644171982,7.494843640916259],[-72.92900798302817,7.498000756691829],[-72.93694068197256,7.508644589062317],[-72.94605512823388,7.515101400541142],[-72.95578043528165,7.519230491671765],[-72.96542541999136,7.521370893381776],[-72.96680772237013,7.521504649912364],[-72.96776202079782,7.521633951152008],[-72.96827931002699,7.5218970354831844],[-72.97160575637724,7.5236762258900445],[-72.97458886800847,7.525669428447394],[-72.97787080589234,7.528442979546524],[-72.9782988735468,7.529049452675562],[-72.9782988735468,7.529954634146087],[-72.97808037984,7.531466296424523],[-72.98202224549549,7.546631636299004],[-72.98579015694025,7.562492696933959],[-72.9885592901572,7.580895421410302],[-72.98975432753174,7.5864692979343],[-72.99155128688692,7.59441984438058],[-72.99050338510773,7.598303749845023],[-72.98624947401805,7.603043765666028],[-72.98247256003341,7.608131567772621],[-72.98055074349193,7.6143877432091305],[-72.98235669286956,7.620309378817672],[-72.98987911056265,7.619404191088432],[-72.99470838824061,7.618226999225824],[-72.99861456900925,7.617308414611031],[-73.00540124250377,7.620073059484835],[-73.01340533856603,7.621843333314973],[-73.0297969935653,7.622440828090958],[-73.0405657993443,7.615948439827621],[-73.04589880807106,7.608323369825822],[-73.04858319115404,7.606276572352119],[-73.04874379197699,7.606530770117366],[-73.04952850959985,7.606816140836985],[-73.05454507317178,7.608590904353385],[-73.05611014314432,7.609121510953508],[-73.05770204337274,7.609629857488114],[-73.06032405232541,7.6103210186273],[-73.06155916308876,7.610410225852012],[-73.08639643158115,7.60960759216966],[-73.0983690609819,7.617705252364466],[-73.10636427513339,7.615212629931917],[-73.11313762002793,7.6124123387689995],[-73.12039259764192,7.608523984096439],[-73.12165007727823,7.608087013887906],[-73.12331779165606,7.6081226596436835],[-73.12603783010375,7.609148247385503],[-73.1265417107878,7.60940247608351],[-73.1288960506303,7.611591829111718],[-73.13737280540707,7.615578304388148],[-73.1393036757194,7.616229337599614],[-73.14180518411943,7.616291710645379],[-73.14329006750727,7.616291767874617],[-73.1551513192638,7.618646173635792],[-73.15637304467462,7.619034057091806],[-73.15833508409989,7.619685155851571],[-73.15916894346365,7.620015134899126],[-73.15955238089559,7.620340586482908],[-73.16134054661194,7.623167721214505],[-73.16383758091193,7.625276830186812],[-73.16422551184174,7.625517606912023],[-73.16523328288933,7.625664764341326],[-73.16571042859555,7.625606833141772],[-73.1663079396398,7.6254284666252135],[-73.17002233971279,7.623346051561987],[-73.17181051274599,7.622244653878279],[-73.1738616323357,7.62072854245399],[-73.17665749512688,7.619359586713098],[-73.1784990889023,7.61885576421988],[-73.18121027433419,7.618681863624005],[-73.18159817544645,7.6187085900302725],[-73.1884161779719,7.620817734367118],[-73.19537682887105,7.625312537783991],[-73.20673416522806,7.6281172593798585],[-73.21709707329623,7.631666760750194],[-73.21767680665195,7.632041330405732],[-73.21818516343426,7.632175055739735],[-73.21903680246747,7.632112620787391],[-73.22070451868092,7.6315017712232205],[-73.22652806203439,7.628389326617245],[-73.22824036354011,7.6269222552613805],[-73.23508061827415,7.620064119931599],[-73.23630694950215,7.618606058820284],[-73.23722997845046,7.61697846949824],[-73.23859444511174,7.6139952995010205],[-73.23917412266799,7.611993150642004],[-73.23989653504928,7.6098929800377215],[-73.24115838865428,7.60629887917617],[-73.24297326377214,7.601688226659778],[-73.24382498822216,7.599752980381122],[-73.24918922939783,7.594384222118462],[-73.25472297550031,7.5910666047645],[-73.25532942847107,7.590781258935118],[-73.25693468952058,7.589639664803473],[-73.25829471576789,7.588565080865014],[-73.258865522951,7.588065609580955],[-73.25917760798531,7.587378944116093],[-73.25920883446256,7.587182762387428],[-73.25936046729394,7.586174986130943],[-73.25939610324404,7.584783708967484],[-73.25906170102265,7.580609983189666],[-73.25889674947217,7.579490798970939],[-73.25855784699294,7.578813034218566],[-73.25780867809844,7.577925666912365],[-73.25329606315063,7.573306027722461],[-73.24882358387555,7.564066742687181],[-73.24784705630073,7.560365694100561],[-73.24754386481005,7.558261041921115],[-73.24785155602291,7.556869782227573],[-73.25251132944531,7.538181656371601],[-73.2525826035385,7.537539552050094],[-73.25268519499612,7.537164979033669],[-73.25425483838995,7.533740421563592],[-73.25514215625844,7.532554292606911],[-73.2565690567459,7.531573291166142],[-73.25874961582531,7.530864293538556],[-73.26102815163121,7.530494188996801],[-73.26282963617852,7.5306680992873964],[-73.26388195770868,7.53148411385879],[-73.27447679498329,7.539782474262906],[-73.2797742483079,7.544000809421548],[-73.28191012842694,7.548241428277688],[-73.28307843360363,7.548936988793703],[-73.28838917728018,7.5490841381877205],[-73.28884851433858,7.5489861102181095],[-73.28938361156207,7.548397456532091],[-73.3060294615757,7.546252648847103],[-73.32347337842863,7.547523511823704],[-73.34072564723891,7.546596016891355],[-73.3477264892035,7.545980673446],[-73.34996938091064,7.543996338948268],[-73.35348767168924,7.544268326091707],[-73.35409852961202,7.544330742725405],[-73.35505722498047,7.544446693908678],[-73.35576621427643,7.544714281387295],[-73.36171022766382,7.547108821455179],[-73.36388623450138,7.550051837097534],[-73.3667267396984,7.555496345196227],[-73.36977228121147,7.563442477959806],[-73.37477988232459,7.566751171642345],[-73.37613540002255,7.5682984321962445],[-73.37647879769122,7.568704264400316],[-73.38008614917942,7.5732123980723705],[-73.38237817301089,7.576097377905563],[-73.38285530017177,7.57673061587308],[-73.38447842402505,7.578964600586702],[-73.38532564180714,7.580217652432697],[-73.3855351972854,7.58098458306451],[-73.3857091371718,7.581541943542859],[-73.38599001291813,7.5818942544259125],[-73.38644482759335,7.582139491791337],[-73.38696655469786,7.582242060717407],[-73.39073894322057,7.582393644575159],[-73.39136768322126,7.5823445759173795],[-73.39194740667949,7.581952232535949],[-73.39882779391856,7.577051640749755],[-73.39921567196421,7.576730592948004],[-73.39934499446832,7.576409517416037],[-73.39933168450625,7.5758923215901675],[-73.3991532589894,7.575169922637508],[-73.39891251021255,7.574349426471505],[-73.39852903831438,7.573653822288088],[-73.39817227573629,7.573252514924415],[-73.3979003191923,7.572993881749727],[-73.39728940497695,7.572793245802885],[-73.39660717192231,7.572632726739066],[-73.39589813649388,7.572396378452499],[-73.39550575578915,7.571821164690326],[-73.39534963069865,7.571138917589486],[-73.39553696280693,7.567865934600132],[-73.395751005055,7.567188095219551],[-73.39653576485767,7.566925025454893],[-73.40543619428979,7.565342037075197],[-73.4064885482367,7.565239542540779],[-73.40748289298459,7.565163728214211],[-73.40874476983359,7.56516368741406],[-73.41031886808787,7.5653510174053675],[-73.41197316962092,7.565850400825522],[-73.4135205361364,7.56640335329032],[-73.41467095954165,7.5670855866582585],[-73.43306925195196,7.571156768791394],[-73.44394051713923,7.573087489611244],[-73.45092793845485,7.573707306909267],[-73.45795100386103,7.574915723264555],[-73.46853690665596,7.578465220697693],[-73.47968909182917,7.586446954675694],[-73.48898186156097,7.59109785993806],[-73.49621895746174,7.594156772093205],[-73.50639468148897,7.597563563610521],[-73.50907455560122,7.601237826977799],[-73.50969440758897,7.604100541009105],[-73.50853505997073,7.606566426494952],[-73.50820949229573,7.607007893998395],[-73.50799996738847,7.6076054301001825],[-73.50797767558,7.60822971875701],[-73.50808913459885,7.609130410322386],[-73.50820508787041,7.609799273582978],[-73.50852616124749,7.611092439426902],[-73.50924399038168,7.6120645519059105],[-73.51511219223542,7.618325128921364],[-73.51895152165648,7.619511205720874],[-73.51873301926918,7.62703817481988],[-73.51636965561524,7.631827217272901],[-73.51643652836789,7.633593072200083],[-73.5168780318143,7.6361704426156285],[-73.5182871155028,7.640112292247512],[-73.52064146951233,7.641075438065786],[-73.5267593949077,7.645539017342962],[-73.53097320692264,7.651496367226806],[-73.53590943567018,7.659161535482083],[-73.5477349524593,7.6668847044929995],[-73.5518373559737,7.668953771677273],[-73.55346943395051,7.669479871616556],[-73.55868209464458,7.674434005052783],[-73.56090272671884,7.677033646974093],[-73.56111678178408,7.677310111310178],[-73.56114796443057,7.677577595287838],[-73.5608982335371,7.6792408932546445],[-73.55989939683586,7.6831871811114745],[-73.55744690218965,7.687472409944159],[-73.55779467992474,7.689131160007788],[-73.5590611431432,7.690517953031859],[-73.56197290998382,7.693590241354052],[-73.56519681621054,7.695828749057443],[-73.56640967714753,7.6964173105838],[-73.56805062712183,7.6960561214919245],[-73.58336769241389,7.696769590382467],[-73.594394992159,7.700341369421462],[-73.59910384265112,7.705754680947344],[-73.60132449177596,7.712322946571053],[-73.60074480366634,7.716759759260582],[-73.60426747100142,7.727327846253919],[-73.61633382240738,7.73622369643362],[-73.62011513689106,7.73895272755474],[-73.62612601732143,7.741012792351279],[-73.6279943143771,7.741489948565212],[-73.62909577251283,7.741690601422785],[-73.63027744610326,7.741579151522632],[-73.63213241020352,7.742591310481089],[-73.63325612456242,7.745632441697815],[-73.63371534637695,7.747514172617713],[-73.63379116459033,7.747902124324809],[-73.63373771454944,7.748276684843903],[-73.63304205426178,7.7491952424598844],[-73.63308220930371,7.749204180087606],[-73.6335459231118,7.749257664971052],[-73.75246123902255,7.750733620962647],[-73.75259949942088,7.750733640962369],[-73.75634955194784,7.750885269196605],[-73.75789246678025,7.753186137665466],[-73.75865943090807,7.759268377552491],[-73.76196354669175,7.770679215711957],[-73.76198590072941,7.770884322578368],[-73.76198590072941,7.770960089792101],[-73.76198590072941,7.771053797773662],[-73.76196354669175,7.771169700265251],[-73.76195465894115,7.77121877053984],[-73.76186991107714,7.771388223395859],[-73.75992132874666,7.773492881113819],[-73.75956015888327,7.77376487985159],[-73.75950665218149,7.773800595717196],[-73.75928813640888,7.773934313255379],[-73.75862818860129,7.7741216000874],[-73.75592149108046,7.774839523373044],[-73.7549538618696,7.774982266142176],[-73.74128230159046,7.776921925329332],[-73.73894124679386,7.786825613057147],[-73.74307035205598,7.7969076581401],[-73.74799322220129,7.802401239531781],[-73.75084708671697,7.804131359254646],[-73.75137768718798,7.808434397993553],[-73.7517923805562,7.812050727491098],[-73.75106112267638,7.81696464122598],[-73.74995520791018,7.820652326948667],[-73.74435012493797,7.829476934062969],[-73.74178168238619,7.831537001019218],[-73.73101293692712,7.8355502210786865],[-73.72466322234185,7.8353228287294705],[-73.72152398296126,7.839358261337734],[-73.72205466070477,7.842381533466807],[-73.72429758935242,7.847714614851092],[-73.7151653494942,7.855999654935337],[-73.70448130324749,7.86426237818508],[-73.69336481801825,7.875815915303319],[-73.69330680346752,7.876083456431068],[-73.6922544561547,7.879093336482741],[-73.69020327026577,7.883619310522561],[-73.6900338040256,7.883837773764241],[-73.68981530283008,7.884109786108038],[-73.6895611478352,7.884310446764232],[-73.68483003500558,7.887199987068398],[-73.6836439166265,7.887788553122594],[-73.68310882741646,7.887926782077891],[-73.6803754318327,7.888350455884299],[-73.6783955270121,7.888198821769251],[-73.67740121146063,7.888163168846352],[-73.67610808205144,7.888310262187472],[-73.67591183965067,7.888368293125628],[-73.67571119619515,7.8884396222910365],[-73.67534107406524,7.888649204989752],[-73.67174705533824,7.890936711072744],[-73.67138590756049,7.891226528275142],[-73.6711495130458,7.891552033393123],[-73.67088195220641,7.892060362221735],[-73.67065902948005,7.892644499792484],[-73.67060109827236,7.892920978225844],[-73.67058771571196,7.893179663262527],[-73.67058771571196,7.893839583693595],[-73.67060109827236,7.894258706271791],[-73.67210820247641,7.903538155575548],[-73.67437790912834,7.909058516439838],[-73.6758672921503,7.921089117488512],[-73.67356194571525,7.930270444361018],[-73.6751270477853,7.939407090536938],[-73.68198960807409,7.940958904304692],[-73.68355922569555,7.948325316054822],[-73.68939168105955,7.9512906676600865],[-73.69767670758412,7.9518881386951294],[-73.70309010336622,7.964690254696018],[-73.70330859026943,7.965127253578546],[-73.70358499876389,7.965671210375756],[-73.70403984168088,7.966282156144734],[-73.70431184893158,7.966598695558198],[-73.70449468357695,7.966799397342863],[-73.70481132118258,7.967142704782242],[-73.70537760376637,7.967646599617375],[-73.70556483766923,7.967798256499514],[-73.70616685859947,7.968270908741155],[-73.70746446624402,7.969251863316142],[-73.70828936322381,7.969760216203838],[-73.70839640382223,7.969822653530657],[-73.70867729532483,7.969929651144624],[-73.7088467459885,7.969951950474936],[-73.70900730642288,7.9699742945316014],[-73.70914110668758,7.969983197440817],[-73.70927930700238,7.969983202223594],[-73.70966723720646,7.9698895522497635],[-73.70985895706754,7.9698360517860385],[-73.71010868650652,7.969737899443062],[-73.7110317219133,7.969260812244215],[-73.71149992797108,7.968935323219959],[-73.71167386615576,7.968810438452436],[-73.71181655462206,7.968707910004082],[-73.71228026899318,7.968315505981464],[-73.71340399069605,7.967321104384188],[-73.71683303637815,7.966299963583811],[-73.72225525832445,7.967022369150435],[-73.72262089501295,7.967107052745365],[-73.72283047134282,7.967187328462247],[-73.72323184442648,7.967454861427937],[-73.7234459097448,7.9676911972004865],[-73.72355734214658,7.967829458529529],[-73.72369113278141,7.968039047772023],[-73.72380705466244,7.9682663928501185],[-73.72392297647691,7.968641027705636],[-73.72393195570066,7.969100281949952],[-73.72392297647691,7.969416909386051],[-73.72388283934187,7.9700188411538795],[-73.72378478617304,7.9703934205551],[-73.7222865062795,7.975739896447345],[-73.72501098611035,7.98448861367302],[-73.72464984334678,7.988675759091412],[-73.72198776485622,7.9955561543421645],[-73.72398098225527,8.00485781748284],[-73.7236465059822,8.008813056058937],[-73.72085960119448,8.00919649904072],[-73.72102455197358,8.010110614456423],[-73.72116723383988,8.010587741876773],[-73.72205466070477,8.011644541846442],[-73.72786041755839,8.017436918092004],[-73.73431265873329,8.022346421643574],[-73.73413882983901,8.028829918695243],[-73.73722893929917,8.035937734178955],[-73.74285630758547,8.038907496578982],[-73.74913030177959,8.04353608940195],[-73.7495851318087,8.043964126962397],[-73.74983041279448,8.044267356319935],[-73.7500667154228,8.045065535156043],[-73.75009347003416,8.045502507912254],[-73.75003547177816,8.04605546709455],[-73.74986156669033,8.046456759488263],[-73.74965650752911,8.046835807934208],[-73.74907230324547,8.047397669305049],[-73.7480556203395,8.04791045391251],[-73.74731985976449,8.047905970082422],[-73.74658418627753,8.047830164766575],[-73.74579930930014,8.047687479567383],[-73.74498776375307,8.047495711963691],[-73.74404692706176,8.047241548526031],[-73.74323088525938,8.04746450454452],[-73.74269577408307,8.047669625754173],[-73.74241492992957,8.047914936449496],[-73.74214288422793,8.048244871181376],[-73.74197786094646,8.048677393259402],[-73.7418753273704,8.04911437374613],[-73.74179506024375,8.049738647786304],[-73.74190208307216,8.050153391017725],[-73.74247732979936,8.051187908834043],[-73.7427225296757,8.051491089174322],[-73.74414057099119,8.052926891480483],[-73.74843467739011,8.05673498119584],[-73.75325937728277,8.060079300383286],[-73.76196354669175,8.061983328708314],[-73.76673926409049,8.07062060017934],[-73.77026641873687,8.081804080391345],[-73.77366424242503,8.091043309841591],[-73.7767856110163,8.094347477582934],[-73.77949229570014,8.097054227802259],[-73.78231492155919,8.097923701113093],[-73.78681861654414,8.096652879936116],[-73.79111270504255,8.102231193792562],[-73.7914204094915,8.102806448901381],[-73.7914204094915,8.103444082753397],[-73.79130443692534,8.104104062081797],[-73.7909031102873,8.10569590671643],[-73.78992218594999,8.106850844541505],[-73.78905705119972,8.107497423897462],[-73.78856209692614,8.107684682413492],[-73.78803590371196,8.107778345997511],[-73.7873804492192,8.107796168291438],[-73.7862969069453,8.107573241944383],[-73.7858242074276,8.107359178693722],[-73.78550760763689,8.107171898931288],[-73.78514648398453,8.106939990869776],[-73.78471390671808,8.106369215120697],[-73.78430368005621,8.105736088175224],[-73.78372397538335,8.104549975726917],[-73.78336284850239,8.10413971998159],[-73.78290351714546,8.103733932496523],[-73.7824352978909,8.103551136970493],[-73.78179320018307,8.103363779125015],[-73.77947443198873,8.102913424002475],[-73.77845781361835,8.102824264401582],[-73.77683911309857,8.102851021073999],[-73.77634421829093,8.102993745133494],[-73.7758002185937,8.103167633473264],[-73.77540334923344,8.103412848173656],[-73.77498861497254,8.10376067838396],[-73.77468537366309,8.10422000058277],[-73.77431525346627,8.104960156638816],[-73.7741369707306,8.105392687002347],[-73.77093081675444,8.118538141145446],[-73.77470772627977,8.133739254692232],[-73.77538099669458,8.134809419776943],[-73.77553261687909,8.135500586178281],[-73.77561735895698,8.136093615821348],[-73.77570649968445,8.13680704981953],[-73.77578235455213,8.13758742824768],[-73.77586709652412,8.140271793414206],[-73.77582248131665,8.141484642140663],[-73.77548800159695,8.144672924813323],[-73.77526061611091,8.145011781978583],[-73.77665185574794,8.143665141084341],[-73.77740995069851,8.14007115537244],[-73.77823931853979,8.13862635867237],[-73.78017452669877,8.137248558742412],[-73.78397819108056,8.135255348646215],[-73.7863236567136,8.134363517987358],[-73.79130003858367,8.133748130119992],[-73.79454625761848,8.133681227115394],[-73.80180120647165,8.13299452819872],[-73.80502068644812,8.13141155366838],[-73.80677307265313,8.130394904358829],[-73.80831595674525,8.128856465697158],[-73.81041619854757,8.125431900484982],[-73.810737246373,8.124763010796336],[-73.81097356667983,8.123835517228061],[-73.81114750829826,8.122992782885783],[-73.81135259406639,8.122034088206869],[-73.81161566000837,8.120812296057268],[-73.81208390036682,8.119594905219481],[-73.8126947562639,8.118752152853288],[-73.81952165644134,8.110364624938665],[-73.82663389374218,8.104268979574528],[-73.84030552212569,8.095011909932252],[-73.85607739604512,8.083694704346787],[-73.85785651854125,8.082129581178567],[-73.86147286046949,8.078499856436029],[-73.86255195353485,8.076876792560228],[-73.86628422748812,8.070139049503895],[-73.8668995815337,8.06787385309524],[-73.86727859128987,8.065434735811452],[-73.86755064519036,8.063615358800012],[-73.86712255492819,8.061145008342923],[-73.8666231300641,8.0549869893038],[-73.86724745580955,8.050090899240518],[-73.86774687908576,8.047856959940946],[-73.86860296622733,8.043709998643754],[-73.86981589202067,8.036446056084689],[-73.87013693296832,8.034354809237891],[-73.87099749598097,8.014774828976565],[-73.86952158906959,7.993607468382821],[-73.86896860339816,7.98930002300265],[-73.86830426482824,7.986205384348466],[-73.86730981649285,7.981893415790193],[-73.86565110530294,7.976921547532041],[-73.86144163433883,7.971285239286236],[-73.85368726093601,7.963985666202312],[-73.8447869021854,7.955736349546534],[-73.83922199964194,7.9503453427048285],[-73.83548526422567,7.94478924129876],[-73.83158799617756,7.935871068100434],[-73.83114654565296,7.932005014933749],[-73.83192686869054,7.929686251230914],[-73.83559672386642,7.903266155142587],[-73.83559672386642,7.900421186126545],[-73.83536483030808,7.896225231791904],[-73.83462463573589,7.88913965027393],[-73.83396915558926,7.885037349835357],[-73.83317546888709,7.883730833309095],[-73.82849333454683,7.876087886976151],[-73.82416361679675,7.870192932838861],[-73.82121162908,7.864886635100301],[-73.82081924797639,7.861350555170537],[-73.81984268952745,7.847857343801055],[-73.82039563346973,7.838903417782116],[-73.82061856969165,7.835501180288047],[-73.82133655903951,7.83193832053963],[-73.82184040651053,7.8288749443323296],[-73.82212580582754,7.8258070715018535],[-73.8216263567529,7.823029081184694],[-73.82062754457456,7.820745980443731],[-73.8184157621364,7.8176068133560985],[-73.81578051014758,7.814949169823433],[-73.81069712664238,7.808951663759673],[-73.80953768985044,7.806878181151062],[-73.80853890654436,7.804390037742144],[-73.80795918269328,7.800662195372252],[-73.80737954690478,7.797014636379683],[-73.80679981966965,7.794031521188595],[-73.80630490952551,7.7917082969114615],[-73.80356699478969,7.785184666567015],[-73.79915693764093,7.7780634913239775],[-73.7981358419394,7.774986690703296],[-73.79801987328466,7.771731570973693],[-73.80824011426456,7.756160398365815],[-73.81380956791571,7.748704787644666],[-73.82029305041377,7.742408527309584],[-73.82444892301838,7.740919195036111],[-73.82611219894838,7.7399247866965375],[-73.82777546090006,7.738850133395323],[-73.82868960733569,7.73769076046061],[-73.82960365980209,7.736116685204963],[-73.83085227467039,7.733383308454382],[-73.83168159899809,7.73155948596135],[-73.83185103524696,7.7298204531127706],[-73.83062037554542,7.727153944607458],[-73.82862714468602,7.725000204239096],[-73.82439543374232,7.721847619681092],[-73.82057396451756,7.719109664755758],[-73.81766670864994,7.715711886019029],[-73.8147638079666,7.712309545901033],[-73.81235585084416,7.708911731954512],[-73.81094233256503,7.706173876322277],[-73.81061239948887,7.704269845537686],[-73.8109468202255,7.7021160348821756],[-73.81211064666792,7.69863351250759],[-73.81344391828246,7.695735088027892],[-73.81552184753409,7.691757574203462],[-73.81426434034096,7.68560400610962],[-73.80947082322419,7.672315927682722],[-73.80233185116056,7.661618542200478],[-73.7981982244308,7.656900790276732],[-73.79731535327888,7.654394782648481],[-73.7977612773027,7.650858739814181],[-73.79968310147058,7.646586876956936],[-73.80337527472082,7.644526757634038],[-73.80618005985478,7.644678377158598],[-73.80883769837457,7.645561254158907],[-73.81201703459833,7.646885679212908],[-73.81501798400048,7.646123124817082],[-73.81701117233933,7.644798780651703],[-73.81842473711907,7.642814492532433],[-73.8188706137468,7.639719885673947],[-73.81852283365322,7.6364469242506345],[-73.81619964697639,7.632299906406129],[-73.81354201728065,7.629316782224917],[-73.81196793985194,7.626748370863646],[-73.81083534670924,7.623867768447822],[-73.81031361032949,7.6165726664793985],[-73.81183860610176,7.613339851167576],[-73.8144115330873,7.6101693683364315],[-73.81590535377958,7.609054657887403],[-73.817260857975,7.608167240506297],[-73.81908466648163,7.607190720230516],[-73.82296405175815,7.605607775200428],[-73.8292291545748,7.598896775286644],[-73.82876535224648,7.591673050571629],[-73.83070958135555,7.577519894988091],[-73.83137844416082,7.575036128397892],[-73.83414747440415,7.572244786845289],[-73.83979274769125,7.567455673746043],[-73.84070235154891,7.566162523567418],[-73.84144261307806,7.564378861820033],[-73.84228095657957,7.561899660801722],[-73.84368554637813,7.555817392006784],[-73.8443900809778,7.551933506244303],[-73.84523280909802,7.547108824101003],[-73.84653489817488,7.541588392676437],[-73.8477611513201,7.537602008476688],[-73.84835870579616,7.535925357262473],[-73.84923264502353,7.5346679306996],[-73.85175653892937,7.533303430184896],[-73.85392810632032,7.532291244715952],[-73.85512308630757,7.532291170966922],[-73.85659461473446,7.532362574837419],[-73.8590471675659,7.53288868861161],[-73.86205700355116,7.533343540202975],[-73.86496432334619,7.533660147427431],[-73.86657853529205,7.533138444566619],[-73.86745257303288,7.53226441774587],[-73.86818824761076,7.531180872692884],[-73.87453804812309,7.519747736908646],[-73.87855128447504,7.5118060566238665],[-73.87965711049485,7.508158564266125],[-73.88154332573805,7.506281259356025],[-73.88530681950014,7.504956940339479],[-73.88973468848044,7.5035210830416],[-73.89649019615173,7.5024196627273065],[-73.9039101386256,7.501206800379091],[-73.90712068253055,7.499770994059629],[-73.90996561371122,7.497947238098702],[-73.91202126211908,7.495583915947616],[-73.91308249389004,7.493595148417409],[-73.91775561252398,7.4781220794159635],[-73.91825508614181,7.476445384876062],[-73.91825508614181,7.475076508180445],[-73.91813470307038,7.47426939109509],[-73.91769766345439,7.47315017644156],[-73.91682367098127,7.47184359240055],[-73.915022209672,7.470224988051593],[-73.90825334922636,7.457578977151009],[-73.90184561291058,7.443470407866521],[-73.8973463370534,7.434913316933503],[-73.8954199923176,7.43006633424669],[-73.89563405149651,7.417652179039221],[-73.89596850727956,7.408783000746788],[-73.8993796902904,7.391214159154373],[-73.9002135698192,7.388150793896834],[-73.90087797951064,7.386162010228885],[-73.90336613153677,7.384338201809808],[-73.90586322280996,7.374809131670662],[-73.90403950156553,7.36784845866906],[-73.90378974668624,7.3623771230517026],[-73.90395921043054,7.359144339282776],[-73.90485990461997,7.3542125331435875],[-73.90560458897438,7.3511982195448],[-73.90722322026657,7.348014367516509],[-73.90929226415638,7.346070191610926],[-73.91093320200129,7.335916814538625],[-73.91368451383853,7.31853976586468],[-73.91418390820168,7.313897849382615],[-73.9142686804246,7.31033499195735],[-73.91427307602032,7.305942799415543],[-73.9140234239664,7.302379991341961],[-73.91443804534772,7.299312076716699],[-73.91585162670582,7.295584290092134],[-73.91700648939704,7.289671509815621],[-73.91900420445943,7.283673997292184],[-73.92062281404183,7.280436710180166],[-73.92195615643598,7.277582921323795],[-73.92386017217366,7.271491789329214],[-73.92454683679709,7.267563316713535],[-73.9246583354742,7.261209035791144],[-73.92424364618489,7.255737758577001],[-73.92245552955966,7.2525227244294355],[-73.91995847170377,7.241758438006535],[-73.91978005153437,7.239377288551612],[-73.92002090526886,7.236104341551763],[-73.92239758189099,7.218553290296665],[-73.92316004983341,7.214838843851055],[-73.92349454806062,7.213456560305201],[-73.92461375395128,7.208872620017303],[-73.92496601049423,7.207418922481455],[-73.92639297036625,7.204944150085609],[-73.9284887201791,7.202563015871273],[-73.93086986779666,7.199040315904633],[-73.93648391800626,7.187905874102064],[-73.93876693114619,7.182291905194869],[-73.93876693114619,7.176771519675268],[-73.93791079315909,7.171630225550945],[-73.93572141271399,7.168299221901509],[-73.93277388581498,7.163728665282499],[-73.93134257764613,7.15934984084465],[-73.93053098704777,7.15115842858591],[-73.93058444736405,7.145736171994674],[-73.93064248228802,7.143965958116509],[-73.93086986779667,7.141450996718775],[-73.93138715762373,7.138137854081361],[-73.93235472897959,7.135400035190383],[-73.93326883594702,7.132599683221187],[-73.93326883594702,7.129687866184587],[-73.93326883594702,7.126887543519914],[-73.93315743191364,7.124831948877825],[-73.93264014680754,7.122892204671698],[-73.93110173795215,7.119066337865674],[-73.92927349928674,7.115298333251672],[-73.92550556186713,7.111013201603744],[-73.91368451383853,7.097136484774364],[-73.89747570434511,7.083192849765638],[-73.89504543304747,7.0816232441204425],[-73.89285601881657,7.079719218180866],[-73.8919998582348,7.078577645708027],[-73.89105011939051,7.077244381239895],[-73.89023854029632,7.075768459768487],[-73.88943144370614,7.074056124318262],[-73.88871800917535,7.0724865462484665],[-73.88838354098411,7.071104192172972],[-73.88804916193897,7.069677314650106],[-73.88761663053648,7.067247134876666],[-73.88773254653405,7.064451241054512],[-73.88815170969188,7.059394623315367],[-73.88779499041759,7.055706940483413],[-73.8866623844664,7.0479748527995945],[-73.8858908915981,7.042918253926474],[-73.88264025252903,7.023735204634218],[-73.8815655765634,7.021304994550791],[-73.88128017364816,7.019806741697212],[-73.88128017364816,7.017737673256284],[-73.88128017364816,7.015740048499027],[-73.88142292001834,7.012881730680935],[-73.88221219521012,7.010241982302933],[-73.88420981793107,7.005243309800119],[-73.88570813374194,7.002032749710907],[-73.88870464122482,6.997533550200956],[-73.89120613669672,6.994180235225627],[-73.8979840218747,6.985899699318576],[-73.90505170529546,6.978546636943392],[-73.91561973834975,6.969124545432872],[-73.94024733683081,6.954418435336883],[-73.9508466390346,6.950583620094068],[-73.96300218174197,6.944100082721063],[-73.97789112578499,6.934316844738297],[-73.99391708992218,6.923672972965853],[-74.00629559293935,6.916578505859501],[-74.0082619878081,6.915383464886429],[-74.01064761878288,6.913278776699852],[-74.0133854941959,6.909769512934472],[-74.014999724859,6.907245614236747],[-74.01668082704863,6.904507727539923],[-74.01773314465757,6.90240302400944],[-74.01850455962375,6.900155690098216],[-74.01892819099342,6.898331860805161],[-74.01941870563317,6.89636541668423],[-74.02005186304267,6.895241730618308],[-74.02094367720083,6.893868335309123],[-74.02295923177137,6.891313284814021],[-74.02720876255916,6.887010239845995],[-74.03099003818618,6.883594566837707],[-74.03903431170473,6.876410955098109],[-74.04457697944444,6.872023187748343],[-74.046574623828,6.870667626008101],[-74.04871495938654,6.870096851604022],[-74.0510025530374,6.8691693590653875],[-74.05471244975355,6.865882984313503],[-74.05842693509014,6.862529731592059],[-74.06200760922242,6.858686007658297],[-74.06373320357294,6.856661590632698],[-74.06491935569014,6.854699613170522],[-74.0772354290968,6.841888582413144],[-74.07885404668072,6.8394138137196965],[-74.07904137125952,6.837318026833775],[-74.07913942529505,6.8324620187873855],[-74.07918845229372,6.829973874784398],[-74.07921525132417,6.828426590399777],[-74.07936681366223,6.826522520206381],[-74.0798707060247,6.82467644803112],[-74.08076259758568,6.8225940853786184],[-74.08123968748187,6.821497098195354],[-74.08442351237987,6.816288887128224],[-74.08552044649771,6.814741576986979],[-74.08968522467005,6.80900273370358],[-74.09120129614695,6.807250272229867],[-74.09403731006543,6.804057551949413],[-74.09594131578903,6.800699885478788],[-74.10079288082648,6.79091217236059],[-74.10956391651916,6.776754516320864],[-74.11051812830061,6.776041080886678],[-74.11289485446969,6.773811506650792],[-74.1136707206287,6.77283050108839],[-74.11426377485627,6.771844990947579],[-74.1146205205349,6.77071685688927],[-74.1146205205349,6.770034607324551],[-74.1146205205349,6.769169582142142],[-74.11622134232265,6.765116237930336],[-74.12336922471103,6.7605679337226885],[-74.1319441370097,6.755769991453109],[-74.13252378244994,6.755457843761381],[-74.13296525799221,6.755248281711105],[-74.13360287335439,6.755114495155717],[-74.1345348308489,6.755092203441119],[-74.13547574389587,6.755150133822078],[-74.13665741142914,6.755332944468971],[-74.137437748743,6.755524705354674],[-74.1392526095145,6.756224773177376],[-74.14051892477598,6.756777743710587],[-74.15270568325474,6.744417097806977],[-74.16351897399727,6.735235829521133],[-74.17613377429156,6.725662080651156],[-74.17731097334608,6.724944173722712],[-74.18155164084826,6.723508358204578],[-74.18417353396934,6.722643312148856],[-74.18840526585383,6.721318981976349],[-74.19280637574376,6.72020418092386],[-74.19491557140084,6.720917614121058],[-74.19612839055152,6.721488421105316],[-74.19823306970508,6.722201883724675],[-74.20055188834021,6.72248725196872],[-74.20280367986179,6.722629938370533],[-74.20473004151873,6.722594277890619],[-74.2059428857684,6.722380222283777],[-74.20808327979844,6.721809429473993],[-74.20961719714873,6.721310044746743],[-74.21308194397217,6.720025819571446],[-74.21440185170948,6.719490715698077],[-74.21697025739435,6.718384904057983],[-74.21846854466725,6.717702616658099],[-74.21954319487445,6.717096192748428],[-74.22917929970951,6.711424235561538],[-74.23099854532998,6.710318325668707],[-74.23246116490044,6.709029634033117],[-74.2403314557119,6.700343375791212],[-74.24252088111496,6.697908640552946],[-74.24324328098436,6.697088197630319],[-74.24397454340306,6.696013542551865],[-74.2452855429295,6.693899968856432],[-74.24734121427586,6.689730722231768],[-74.24814382964713,6.687559104045516],[-74.24941020501632,6.685057512357555],[-74.25016382941823,6.683648433846795],[-74.25101998094073,6.682105624491622],[-74.25267424667784,6.679648626206711],[-74.25444454696242,6.677138166068417],[-74.2565002049515,6.675082543127817],[-74.25901510186404,6.673365757902518],[-74.27409131054223,6.664541183298095],[-74.27670883893009,6.663533449159639],[-74.2931986258781,6.657736646406351],[-74.29890622188952,6.656309710273628],[-74.30176456290314,6.655832561954],[-74.30404760457081,6.6556453137102585],[-74.30699950088675,6.655645317222911],[-74.30928256611439,6.655301950302148],[-74.31037950856309,6.655025484504994],[-74.31222112875567,6.654312011331296],[-74.31353208451452,6.65324182622103],[-74.3149590416769,6.652051267882161],[-74.3174561224893,6.648720366962204],[-74.31828993714177,6.646994657129915],[-74.31876704030712,6.6452109980712954],[-74.31953845885874,6.643186608248857],[-74.32022519583434,6.641880108076433],[-74.32841213119022,6.630982028910467],[-74.3302269840625,6.629572984111073],[-74.33083786824022,6.629563999941084],[-74.33219791723197,6.629778063247875],[-74.33362481644207,6.630634210775768],[-74.33519437462948,6.631994258497372],[-74.33690667756782,6.633064436323634],[-74.33840496285544,6.633706542646129],[-74.34040713228475,6.634063254422613],[-74.34333230028668,6.63434866665359],[-74.34590067727689,6.634419986230297],[-74.3523975756478,6.634219309517605],[-74.35620567832497,6.633978524280773],[-74.35806070189372,6.63345679503183],[-74.35939396587173,6.632837027968481],[-74.35968374230097,6.632511487835502],[-74.36540033238374,6.6257737768125455],[-74.37281134056222,6.6200706024232],[-74.3828086818246,6.610577211466798],[-74.3853058046761,6.606653147451596],[-74.38744614234999,6.603509473276217],[-74.3898718870251,6.601440513165919],[-74.39324299999294,6.599781701985993],[-74.39559735481853,6.599206507423029],[-74.39931184490064,6.597636898730161],[-74.40202293090088,6.595781888922847],[-74.4047340651147,6.593855583479631],[-74.40680760489465,6.59135844696399],[-74.4083058422433,6.588214789536025],[-74.40887655766745,6.586502486668773],[-74.40894795288406,6.58536095166832],[-74.40873385661607,6.581860569327226],[-74.40766372928562,6.575867511985558],[-74.40559467294544,6.573223273655959],[-74.40409193927373,6.570583516827132],[-74.40328930108429,6.568973735057298],[-74.40297722765149,6.568037326876637],[-74.40288802536854,6.5670251537996736],[-74.40288802536854,6.565718644502598],[-74.40330719518657,6.563078873634043],[-74.40365049319068,6.561593991716504],[-74.4047920415292,6.55793747738516],[-74.40564817561325,6.55490979862734],[-74.4063349408713,6.551770570709307],[-74.40667823303801,6.549371583085345],[-74.40673620881941,6.545202311707492],[-74.40673620881941,6.543659447455648],[-74.40673620881941,6.542633860945026],[-74.40278987596444,6.527468438162401],[-74.40219686273537,6.525519851474893],[-74.3989461703641,6.516534724820659],[-74.39788493154897,6.513993070602395],[-74.39664080195338,6.51145137918306],[-74.39463425002168,6.506194060440238],[-74.39398322974974,6.502528740470733],[-74.39379586860998,6.500459641001126],[-74.39379586860998,6.4984218534236105],[-74.3940322621454,6.496094249890392],[-74.39431759820981,6.493855738397956],[-74.39550823831655,6.490618441096052],[-74.39684149169435,6.488099084988025],[-74.3983620021698,6.485717924404655],[-74.40012335874778,6.483243050999085],[-74.40259814000811,6.480148463982608],[-74.40431042515485,6.477343699959428],[-74.40464486371165,6.476487517124857],[-74.40483659746457,6.475341546672428],[-74.40488571634425,6.474819883074127],[-74.40489457384571,6.472674985122049],[-74.4046805621722,6.47089138576525],[-74.39790273672072,6.453652492146949],[-74.39706884435584,6.451810847674976],[-74.39076370453,6.443481260232793],[-74.38850296935757,6.4412204904302826],[-74.38261245035308,6.436221865056329],[-74.37691376943319,6.431557670965179],[-74.37541553697767,6.430416132215418],[-74.37406440564425,6.42912301823036],[-74.37332418286957,6.4278164738712045],[-74.36992629557155,6.421497911575035],[-74.36885611461798,6.417926189415913],[-74.36871347106806,6.41500101750095],[-74.36949827764964,6.412218549869612],[-74.37113920135121,6.408789494334834],[-74.37299415993047,6.406078339418888],[-74.37843427060619,6.401052962532082],[-74.38094478733451,6.3994521437073235],[-74.39025538609883,6.394083392112876],[-74.39248048765735,6.393512596763155],[-74.39727848096865,6.393057769029106],[-74.40347665224603,6.392781324785479],[-74.40550994544363,6.392781317266119],[-74.40768600689533,6.392959666013221],[-74.40915301267022,6.393245031773992],[-74.41214952472008,6.393566143294336],[-74.4140402009535,6.393708780317837],[-74.415837277545,6.393588400322187],[-74.41840121372876,6.393066706332127],[-74.42044346141427,6.392335357679328],[-74.42133530472057,6.39170663127001],[-74.42353362700409,6.38997655511009],[-74.43850731202298,6.373165684587307],[-74.44096429426972,6.367743474867966],[-74.4448481476445,6.354491025761619],[-74.4464489298423,6.342727880693361],[-74.44656047240679,6.341416926965617],[-74.44667639788439,6.340328906212209],[-74.44741658384439,6.337876398918853],[-74.44821920132263,6.335646829757839],[-74.44918684563251,6.333934545443273],[-74.45038633080733,6.33187891080037],[-74.45198715228602,6.330050678898025],[-74.46243931800575,6.318916286232743],[-74.46420960800154,6.317204021184713],[-74.46664870272768,6.315019035505933],[-74.47255252982319,6.310586664241437],[-74.47494706013934,6.309552188855758],[-74.47778308844855,6.308990358681946],[-74.48021770235339,6.308232275194211],[-74.48273268042915,6.307117534809013],[-74.48483293945384,6.30567723048358],[-74.4868261277692,6.304107660580588],[-74.48887733172513,6.302297238246968],[-74.49467864735084,6.2970399792499885],[-74.49826371848201,6.292919708179904],[-74.49926256412749,6.291064723972138],[-74.50072514287402,6.289209730144129],[-74.50283430728486,6.287497450678805],[-74.50486761894524,6.286427299745818],[-74.50855084039782,6.2855220677834405],[-74.50963001290143,6.285205523672083],[-74.51094541583463,6.28472394753794],[-74.51342025287519,6.283649239601837],[-74.51608228645586,6.281798778469592],[-74.51804427186941,6.279952667681639],[-74.51989035814384,6.277932673754309],[-74.52161607842508,6.276327453390649],[-74.52657006417748,6.273643066232606]]]},"id":"0003000000000000017c","properties":{"continent":"America","disp_en":"Santander, Colombia","gaul0_code":185,"gaul0_name":"Colombia","gaul1_code":1940,"gaul1_name":"Santander","iso3_code":"COL","map_code":"COL"}}]}